<?xml version="1.0" encoding="UTF-8"?>
<gpx xmlns="http://www.topografix.com/GPX/1/1" xmlns:xsi="http://www.w3.org/2001/XMLSchema-instance" xsi:schemaLocation="http://www.topografix.com/GPX/1/1 http://www.topografix.com/GPX/1/1/gpx.xsd" version="1.1" creator="gpx.py -- https://github.com/tkrajina/gpxpy">
  <trk>
    <name>norwegen-2026 (aus Foto/Video-EXIF)</name>
    <trkseg>
      <trkpt lat="51.095511111111115" lon="6.563825">
        <ele>71.9</ele>
        <time>2026-07-17T18:13:04Z</time>
      </trkpt>
      <trkpt lat="51.095555555555556" lon="6.563883333333333">
        <ele>72.8</ele>
        <time>2026-07-17T18:13:21Z</time>
      </trkpt>
      <trkpt lat="51.09556944444444" lon="6.563883333333333">
        <ele>75.5</ele>
        <time>2026-07-17T18:13:44Z</time>
      </trkpt>
      <trkpt lat="51.09549722222223" lon="6.563886111111111">
        <ele>75.0</ele>
        <time>2026-07-17T18:15:17Z</time>
      </trkpt>
      <trkpt lat="51.09514166666667" lon="6.564391666666666">
        <ele>73.5</ele>
        <time>2026-07-17T18:17:31Z</time>
      </trkpt>
      <trkpt lat="51.095130555555556" lon="6.5641388888888885">
        <ele>71.4</ele>
        <time>2026-07-17T18:17:50Z</time>
      </trkpt>
      <trkpt lat="51.09555833333334" lon="6.563866666666667">
        <ele>84.5</ele>
        <time>2026-07-18T07:00:39Z</time>
      </trkpt>
      <trkpt lat="51.09554166666667" lon="6.563899999999999">
        <ele>72.3</ele>
        <time>2026-07-18T07:00:54Z</time>
      </trkpt>
      <trkpt lat="51.094661111111115" lon="6.563497222222222">
        <ele>72.4</ele>
        <time>2026-07-18T07:06:05Z</time>
      </trkpt>
      <trkpt lat="52.53978055555555" lon="8.113486111111111">
        <ele>69.4</ele>
        <time>2026-07-18T09:29:32Z</time>
      </trkpt>
      <trkpt lat="52.53933611111111" lon="8.114902777777777">
        <ele>70.3</ele>
        <time>2026-07-18T09:40:24Z</time>
      </trkpt>
      <trkpt lat="53.023716666666665" lon="8.817641666666667">
        <ele>5.1</ele>
        <time>2026-07-18T10:51:47Z</time>
      </trkpt>
      <trkpt lat="53.52234166666666" lon="9.926855555555555">
        <ele>16.0</ele>
        <time>2026-07-18T13:13:46Z</time>
      </trkpt>
      <trkpt lat="54.07282222222223" lon="9.923794444444443">
        <ele>28.5</ele>
        <time>2026-07-18T14:20:56Z</time>
      </trkpt>
      <trkpt lat="54.317061111111116" lon="9.85956388888889">
        <ele>20.5</ele>
        <time>2026-07-18T14:47:06Z</time>
      </trkpt>
      <trkpt lat="54.319472222222224" lon="9.741630555555554">
        <ele>20.2</ele>
        <time>2026-07-18T15:00:13Z</time>
      </trkpt>
      <trkpt lat="54.78838611111111" lon="9.436283333333334">
        <ele>2.3</ele>
        <time>2026-07-18T16:59:51Z</time>
      </trkpt>
      <trkpt lat="54.78841388888889" lon="9.436266666666667">
        <ele>2.0</ele>
        <time>2026-07-18T17:00:14Z</time>
      </trkpt>
      <trkpt lat="54.78832222222222" lon="9.43651388888889">
        <ele>2.8</ele>
        <time>2026-07-18T17:00:42Z</time>
      </trkpt>
      <trkpt lat="54.78904722222222" lon="9.437408333333334">
        <ele>2.8</ele>
        <time>2026-07-18T17:06:41Z</time>
      </trkpt>
      <trkpt lat="54.78905833333333" lon="9.437419444444444">
        <ele>2.5</ele>
        <time>2026-07-18T17:06:45Z</time>
      </trkpt>
      <trkpt lat="54.788738888888886" lon="9.437236111111112">
        <ele>2.2</ele>
        <time>2026-07-18T17:22:15Z</time>
      </trkpt>
      <trkpt lat="54.78863611111111" lon="9.437275">
        <ele>2.7</ele>
        <time>2026-07-18T17:22:35Z</time>
      </trkpt>
      <trkpt lat="54.788719444444446" lon="9.437236111111112">
        <ele>2.7</ele>
        <time>2026-07-18T17:30:28Z</time>
      </trkpt>
      <trkpt lat="54.78873055555555" lon="9.437208333333334">
        <ele>3.7</ele>
        <time>2026-07-18T17:32:04Z</time>
      </trkpt>
      <trkpt lat="54.78877222222222" lon="9.436680555555556">
        <ele>3.8</ele>
        <time>2026-07-18T17:32:58Z</time>
      </trkpt>
      <trkpt lat="54.78876388888889" lon="9.436880555555556">
        <ele>3.7</ele>
        <time>2026-07-18T17:35:25Z</time>
      </trkpt>
      <trkpt lat="54.78867777777778" lon="9.437352777777779">
        <ele>3.1</ele>
        <time>2026-07-18T17:37:01Z</time>
      </trkpt>
      <trkpt lat="54.78865833333333" lon="9.437363888888889">
        <ele>3.6</ele>
        <time>2026-07-18T17:37:19Z</time>
      </trkpt>
      <trkpt lat="54.78867777777778" lon="9.437052777777778">
        <ele>3.9</ele>
        <time>2026-07-18T18:10:48Z</time>
      </trkpt>
      <trkpt lat="54.78874722222222" lon="9.437125">
        <ele>3.9</ele>
        <time>2026-07-18T18:13:17Z</time>
      </trkpt>
      <trkpt lat="54.78866111111111" lon="9.437347222222222">
        <ele>2.3</ele>
        <time>2026-07-18T18:13:53Z</time>
      </trkpt>
      <trkpt lat="54.78871111111111" lon="9.436944444444444">
        <ele>4.1</ele>
        <time>2026-07-18T18:30:04Z</time>
      </trkpt>
      <trkpt lat="54.788691666666665" lon="9.436763888888889">
        <ele>3.8</ele>
        <time>2026-07-18T18:39:00Z</time>
      </trkpt>
      <trkpt lat="54.788688888888885" lon="9.436958333333333">
        <ele>2.2</ele>
        <time>2026-07-18T18:39:09Z</time>
      </trkpt>
      <trkpt lat="54.78839444444444" lon="9.437247222222222">
        <ele>2.4</ele>
        <time>2026-07-18T18:48:58Z</time>
      </trkpt>
      <trkpt lat="54.788669444444444" lon="9.435752777777777">
        <ele>2.6</ele>
        <time>2026-07-18T18:53:30Z</time>
      </trkpt>
      <trkpt lat="54.785222222222224" lon="9.43741111111111">
        <ele>7.7</ele>
        <time>2026-07-18T19:21:15Z</time>
      </trkpt>
      <trkpt lat="54.78520833333333" lon="9.437377777777778">
        <ele>6.8</ele>
        <time>2026-07-18T19:21:29Z</time>
      </trkpt>
      <trkpt lat="54.78502777777778" lon="9.437280555555557">
        <ele>9.2</ele>
        <time>2026-07-19T06:21:32Z</time>
      </trkpt>
      <trkpt lat="54.78595833333333" lon="9.437566666666667">
        <ele>6.4</ele>
        <time>2026-07-19T06:33:05Z</time>
      </trkpt>
      <trkpt lat="54.78992777777778" lon="9.433869444444445">
        <ele>3.3</ele>
        <time>2026-07-19T06:40:52Z</time>
      </trkpt>
      <trkpt lat="56.749716666666664" lon="9.696180555555555">
        <ele>74.5</ele>
        <time>2026-07-19T10:00:26Z</time>
      </trkpt>
      <trkpt lat="56.751625" lon="9.695655555555556">
        <ele>73.6</ele>
        <time>2026-07-19T10:00:33Z</time>
      </trkpt>
      <trkpt lat="57.59239166666667" lon="9.969722222222222">
        <ele>4.5</ele>
        <time>2026-07-19T11:26:03Z</time>
      </trkpt>
      <trkpt lat="57.5933" lon="9.969391666666667">
        <ele>3.8</ele>
        <time>2026-07-19T11:49:01Z</time>
      </trkpt>
      <trkpt lat="57.59396111111111" lon="9.966608333333333">
        <time>2026-07-19T12:28:59Z</time>
      </trkpt>
      <trkpt lat="57.60140277777778" lon="9.956697222222221">
        <time>2026-07-19T12:39:56Z</time>
      </trkpt>
      <trkpt lat="57.60338333333333" lon="9.987394444444444">
        <time>2026-07-19T13:08:57Z</time>
      </trkpt>
      <trkpt lat="57.80204444444444" lon="9.956916666666666">
        <ele>1.1</ele>
        <time>2026-07-19T13:40:02Z</time>
      </trkpt>
      <trkpt lat="57.81089444444444" lon="9.95876111111111">
        <ele>1.3</ele>
        <time>2026-07-19T14:33:19Z</time>
      </trkpt>
      <trkpt lat="58.37858333333333" lon="10.053597222222223">
        <ele>26.4</ele>
        <time>2026-07-19T14:59:46Z</time>
      </trkpt>
      <trkpt lat="58.410525" lon="10.057608333333334">
        <ele>18.3</ele>
        <time>2026-07-19T15:04:17Z</time>
      </trkpt>
      <trkpt lat="58.43561111111111" lon="10.060891666666667">
        <ele>16.9</ele>
        <time>2026-07-19T15:07:48Z</time>
      </trkpt>
      <trkpt lat="58.651263888888884" lon="10.08678888888889">
        <time>2026-07-19T15:43:26Z</time>
      </trkpt>
      <trkpt lat="59.020408333333336" lon="10.272747222222224">
        <time>2026-07-19T16:06:05Z</time>
      </trkpt>
      <trkpt lat="58.891666666666666" lon="10.093777777777778">
        <ele>22.1</ele>
        <time>2026-07-19T16:10:42Z</time>
      </trkpt>
      <trkpt lat="58.89669722222222" lon="10.093380555555557">
        <ele>17.9</ele>
        <time>2026-07-19T16:11:23Z</time>
      </trkpt>
      <trkpt lat="58.89707222222222" lon="10.093358333333335">
        <ele>17.5</ele>
        <time>2026-07-19T16:11:26Z</time>
      </trkpt>
      <trkpt lat="59.21015555555556" lon="9.563497222222223">
        <ele>100.7</ele>
        <time>2026-07-19T18:14:56Z</time>
      </trkpt>
      <trkpt lat="59.210169444444446" lon="9.563661111111111">
        <ele>99.7</ele>
        <time>2026-07-19T18:55:21Z</time>
      </trkpt>
      <trkpt lat="59.210225" lon="9.563733333333333">
        <ele>99.7</ele>
        <time>2026-07-19T18:58:15Z</time>
      </trkpt>
      <trkpt lat="59.21021944444445" lon="9.563733333333333">
        <ele>99.7</ele>
        <time>2026-07-19T19:11:57Z</time>
      </trkpt>
      <trkpt lat="59.21022777777778" lon="9.56388888888889">
        <ele>97.2</ele>
        <time>2026-07-19T19:36:17Z</time>
      </trkpt>
      <trkpt lat="59.21027777777778" lon="9.564033333333334">
        <ele>98.8</ele>
        <time>2026-07-19T19:36:36Z</time>
      </trkpt>
      <trkpt lat="59.210213888888894" lon="9.564083333333334">
        <ele>94.9</ele>
        <time>2026-07-20T12:18:44Z</time>
      </trkpt>
      <trkpt lat="59.38151666666667" lon="9.414458333333334">
        <ele>586.3</ele>
        <time>2026-07-20T13:45:29Z</time>
      </trkpt>
      <trkpt lat="59.38174444444444" lon="9.414525000000001">
        <ele>581.3</ele>
        <time>2026-07-20T13:47:17Z</time>
      </trkpt>
      <trkpt lat="59.38158055555556" lon="9.414330555555557">
        <ele>587.7</ele>
        <time>2026-07-20T13:49:41Z</time>
      </trkpt>
      <trkpt lat="59.381225" lon="9.41441111111111">
        <ele>587.9</ele>
        <time>2026-07-20T13:53:24Z</time>
      </trkpt>
      <trkpt lat="59.38135555555556" lon="9.414338888888889">
        <ele>581.0</ele>
        <time>2026-07-20T13:53:30Z</time>
      </trkpt>
      <trkpt lat="59.381508333333336" lon="9.414052777777778">
        <ele>559.4</ele>
        <time>2026-07-20T14:35:59Z</time>
      </trkpt>
      <trkpt lat="59.38151944444444" lon="9.414361111111111">
        <ele>586.6</ele>
        <time>2026-07-20T14:37:05Z</time>
      </trkpt>
      <trkpt lat="59.38152222222222" lon="9.414366666666668">
        <ele>587.7</ele>
        <time>2026-07-20T14:39:07Z</time>
      </trkpt>
      <trkpt lat="59.381508333333336" lon="9.414402777777779">
        <ele>587.1</ele>
        <time>2026-07-20T14:39:38Z</time>
      </trkpt>
      <trkpt lat="59.38161111111111" lon="9.414347222222222">
        <ele>588.8</ele>
        <time>2026-07-20T14:40:42Z</time>
      </trkpt>
      <trkpt lat="59.381569444444445" lon="9.414319444444445">
        <ele>588.0</ele>
        <time>2026-07-20T14:41:01Z</time>
      </trkpt>
      <trkpt lat="59.38156111111111" lon="9.414325">
        <ele>587.9</ele>
        <time>2026-07-20T14:41:35Z</time>
      </trkpt>
      <trkpt lat="59.381747222222224" lon="9.41355">
        <ele>577.3</ele>
        <time>2026-07-20T14:43:55Z</time>
      </trkpt>
      <trkpt lat="59.381747222222224" lon="9.413541666666667">
        <ele>577.7</ele>
        <time>2026-07-20T14:44:03Z</time>
      </trkpt>
      <trkpt lat="59.38216666666667" lon="9.413611111111111">
        <ele>584.0</ele>
        <time>2026-07-20T14:47:31Z</time>
      </trkpt>
      <trkpt lat="59.38541111111111" lon="9.41178611111111">
        <ele>568.5</ele>
        <time>2026-07-20T14:57:22Z</time>
      </trkpt>
      <trkpt lat="59.38520555555556" lon="9.411652777777778">
        <ele>568.3</ele>
        <time>2026-07-20T14:58:50Z</time>
      </trkpt>
      <trkpt lat="59.38522777777778" lon="9.411605555555555">
        <ele>571.6</ele>
        <time>2026-07-20T15:00:40Z</time>
      </trkpt>
      <trkpt lat="59.38601666666666" lon="9.411111111111111">
        <ele>573.6</ele>
        <time>2026-07-20T15:00:44Z</time>
      </trkpt>
      <trkpt lat="59.38706666666667" lon="9.409608333333333">
        <ele>560.8</ele>
        <time>2026-07-20T15:04:09Z</time>
      </trkpt>
      <trkpt lat="59.387" lon="9.409611111111111">
        <ele>563.1</ele>
        <time>2026-07-20T15:04:55Z</time>
      </trkpt>
      <trkpt lat="59.387877777777774" lon="9.406516666666667">
        <ele>535.2</ele>
        <time>2026-07-20T15:11:18Z</time>
      </trkpt>
      <trkpt lat="59.388355555555556" lon="9.406066666666668">
        <ele>538.4</ele>
        <time>2026-07-20T15:13:26Z</time>
      </trkpt>
      <trkpt lat="59.388352777777776" lon="9.406066666666668">
        <ele>538.1</ele>
        <time>2026-07-20T15:13:40Z</time>
      </trkpt>
      <trkpt lat="59.388352777777776" lon="9.406083333333333">
        <ele>536.9</ele>
        <time>2026-07-20T15:14:22Z</time>
      </trkpt>
      <trkpt lat="59.38800833333333" lon="9.406230555555556">
        <ele>525.9</ele>
        <time>2026-07-20T15:31:05Z</time>
      </trkpt>
      <trkpt lat="59.38827777777778" lon="9.405752777777778">
        <time>2026-07-20T15:33:27Z</time>
      </trkpt>
      <trkpt lat="59.38823333333333" lon="9.406233333333335">
        <ele>537.7</ele>
        <time>2026-07-20T15:33:45Z</time>
      </trkpt>
      <trkpt lat="59.388333333333335" lon="9.406075">
        <ele>536.3</ele>
        <time>2026-07-20T15:41:59Z</time>
      </trkpt>
      <trkpt lat="59.38833611111111" lon="9.406077777777778">
        <ele>536.6</ele>
        <time>2026-07-20T15:42:04Z</time>
      </trkpt>
      <trkpt lat="59.388358333333336" lon="9.406097222222222">
        <ele>539.1</ele>
        <time>2026-07-20T15:42:45Z</time>
      </trkpt>
      <trkpt lat="59.38836388888889" lon="9.40608888888889">
        <ele>539.6</ele>
        <time>2026-07-20T15:43:13Z</time>
      </trkpt>
      <trkpt lat="59.388355555555556" lon="9.406075">
        <ele>539.6</ele>
        <time>2026-07-20T15:43:20Z</time>
      </trkpt>
      <trkpt lat="59.38820277777778" lon="9.406225000000001">
        <ele>530.0</ele>
        <time>2026-07-20T15:57:03Z</time>
      </trkpt>
      <trkpt lat="59.388263888888886" lon="9.40611111111111">
        <ele>538.7</ele>
        <time>2026-07-20T15:58:38Z</time>
      </trkpt>
      <trkpt lat="59.38824722222222" lon="9.40615">
        <ele>537.7</ele>
        <time>2026-07-20T16:01:57Z</time>
      </trkpt>
      <trkpt lat="59.388263888888886" lon="9.406136111111111">
        <ele>537.4</ele>
        <time>2026-07-20T16:02:07Z</time>
      </trkpt>
      <trkpt lat="59.38955" lon="9.404069444444445">
        <ele>534.0</ele>
        <time>2026-07-20T16:11:14Z</time>
      </trkpt>
      <trkpt lat="59.389602777777775" lon="9.403808333333334">
        <ele>538.6</ele>
        <time>2026-07-20T16:11:37Z</time>
      </trkpt>
      <trkpt lat="59.389808333333335" lon="9.40361388888889">
        <ele>537.4</ele>
        <time>2026-07-20T16:11:53Z</time>
      </trkpt>
      <trkpt lat="59.390008333333334" lon="9.403280555555556">
        <ele>536.8</ele>
        <time>2026-07-20T16:13:20Z</time>
      </trkpt>
      <trkpt lat="59.388263888888886" lon="9.40615">
        <ele>538.5</ele>
        <time>2026-07-20T16:32:28Z</time>
      </trkpt>
      <trkpt lat="59.38735555555556" lon="9.409086111111112">
        <ele>552.3</ele>
        <time>2026-07-20T16:37:27Z</time>
      </trkpt>
      <trkpt lat="59.38729166666667" lon="9.409180555555556">
        <ele>553.8</ele>
        <time>2026-07-20T16:37:43Z</time>
      </trkpt>
      <trkpt lat="59.38343888888889" lon="9.413655555555556">
        <ele>591.9</ele>
        <time>2026-07-20T16:48:08Z</time>
      </trkpt>
      <trkpt lat="59.38345277777778" lon="9.413783333333333">
        <ele>595.2</ele>
        <time>2026-07-20T16:48:41Z</time>
      </trkpt>
      <trkpt lat="59.38345833333333" lon="9.413791666666667">
        <ele>598.7</ele>
        <time>2026-07-20T16:48:48Z</time>
      </trkpt>
      <trkpt lat="59.38206944444445" lon="9.414258333333335">
        <ele>569.4</ele>
        <time>2026-07-20T16:54:10Z</time>
      </trkpt>
      <trkpt lat="59.382308333333334" lon="9.414352777777777">
        <ele>585.7</ele>
        <time>2026-07-20T16:54:12Z</time>
      </trkpt>
      <trkpt lat="59.381477777777775" lon="9.414425">
        <ele>586.7</ele>
        <time>2026-07-20T17:12:40Z</time>
      </trkpt>
      <trkpt lat="59.381480555555555" lon="9.41441111111111">
        <ele>589.1</ele>
        <time>2026-07-20T17:27:58Z</time>
      </trkpt>
      <trkpt lat="59.38152222222222" lon="9.414341666666667">
        <ele>585.0</ele>
        <time>2026-07-20T18:04:26Z</time>
      </trkpt>
      <trkpt lat="59.38152777777778" lon="9.414347222222222">
        <ele>583.8</ele>
        <time>2026-07-20T18:11:44Z</time>
      </trkpt>
      <trkpt lat="59.00731944444444" lon="9.70385">
        <ele>2.0</ele>
        <time>2026-07-21T12:55:14Z</time>
      </trkpt>
      <trkpt lat="59.007358333333336" lon="9.70345">
        <ele>8.0</ele>
        <time>2026-07-21T12:55:46Z</time>
      </trkpt>
      <trkpt lat="59.006725" lon="9.703794444444444">
        <ele>5.1</ele>
        <time>2026-07-21T12:58:18Z</time>
      </trkpt>
      <trkpt lat="59.005602777777774" lon="9.705230555555556">
        <ele>5.1</ele>
        <time>2026-07-21T13:04:26Z</time>
      </trkpt>
      <trkpt lat="59.00697777777778" lon="9.704083333333333">
        <ele>3.9</ele>
        <time>2026-07-21T13:10:18Z</time>
      </trkpt>
      <trkpt lat="59.006905555555555" lon="9.704163888888889">
        <ele>3.3</ele>
        <time>2026-07-21T13:12:54Z</time>
      </trkpt>
      <trkpt lat="59.00689444444444" lon="9.70425">
        <ele>3.6</ele>
        <time>2026-07-21T13:37:16Z</time>
      </trkpt>
      <trkpt lat="59.007488888888886" lon="9.704658333333333">
        <ele>5.4</ele>
        <time>2026-07-21T14:39:00Z</time>
      </trkpt>
      <trkpt lat="59.00701111111111" lon="9.704477777777777">
        <ele>3.1</ele>
        <time>2026-07-21T14:41:52Z</time>
      </trkpt>
      <trkpt lat="59.006930555555556" lon="9.704313888888889">
        <ele>2.5</ele>
        <time>2026-07-21T14:46:47Z</time>
      </trkpt>
      <trkpt lat="59.00686666666667" lon="9.704216666666666">
        <ele>3.3</ele>
        <time>2026-07-21T14:57:16Z</time>
      </trkpt>
      <trkpt lat="59.00806388888889" lon="9.703716666666667">
        <ele>4.9</ele>
        <time>2026-07-21T15:46:54Z</time>
      </trkpt>
      <trkpt lat="59.00780555555556" lon="9.702844444444445">
        <ele>7.9</ele>
        <time>2026-07-21T15:52:40Z</time>
      </trkpt>
      <trkpt lat="59.38153055555556" lon="9.414405555555556">
        <ele>587.2</ele>
        <time>2026-07-22T12:22:22Z</time>
      </trkpt>
      <trkpt lat="59.38153333333334" lon="9.414391666666667">
        <ele>587.2</ele>
        <time>2026-07-22T12:26:38Z</time>
      </trkpt>
      <trkpt lat="59.38153333333334" lon="9.414391666666667">
        <ele>587.2</ele>
        <time>2026-07-22T12:26:43Z</time>
      </trkpt>
      <trkpt lat="59.38158055555556" lon="9.414552777777779">
        <ele>590.1</ele>
        <time>2026-07-22T12:42:49Z</time>
      </trkpt>
      <trkpt lat="59.3815" lon="9.414325">
        <ele>585.3</ele>
        <time>2026-07-22T12:45:13Z</time>
      </trkpt>
      <trkpt lat="59.381547222222224" lon="9.414383333333333">
        <ele>587.5</ele>
        <time>2026-07-22T14:00:15Z</time>
      </trkpt>
      <trkpt lat="59.38154166666667" lon="9.414380555555557">
        <ele>587.5</ele>
        <time>2026-07-22T14:00:22Z</time>
      </trkpt>
      <trkpt lat="59.38153888888889" lon="9.414380555555557">
        <ele>587.5</ele>
        <time>2026-07-22T15:36:47Z</time>
      </trkpt>
      <trkpt lat="59.38149722222222" lon="9.414408333333334">
        <ele>583.0</ele>
        <time>2026-07-22T15:36:50Z</time>
      </trkpt>
      <trkpt lat="59.38156111111111" lon="9.414377777777778">
        <ele>587.6</ele>
        <time>2026-07-22T16:10:09Z</time>
      </trkpt>
      <trkpt lat="59.38154166666667" lon="9.414380555555557">
        <ele>587.6</ele>
        <time>2026-07-22T17:09:19Z</time>
      </trkpt>
      <trkpt lat="59.38153333333334" lon="9.414444444444445">
        <ele>585.1</ele>
        <time>2026-07-22T17:09:36Z</time>
      </trkpt>
      <trkpt lat="59.38153888888889" lon="9.414436111111112">
        <ele>585.3</ele>
        <time>2026-07-22T17:09:40Z</time>
      </trkpt>
      <trkpt lat="59.38153333333334" lon="9.414402777777779">
        <ele>585.8</ele>
        <time>2026-07-22T17:10:03Z</time>
      </trkpt>
      <trkpt lat="59.381547222222224" lon="9.414419444444444">
        <ele>587.6</ele>
        <time>2026-07-22T17:22:08Z</time>
      </trkpt>
      <trkpt lat="59.38154166666667" lon="9.414397222222222">
        <ele>587.6</ele>
        <time>2026-07-22T17:23:10Z</time>
      </trkpt>
      <trkpt lat="59.380855555555556" lon="9.414655555555555">
        <ele>582.5</ele>
        <time>2026-07-22T17:51:56Z</time>
      </trkpt>
      <trkpt lat="59.381591666666665" lon="9.414041666666668">
        <ele>578.6</ele>
        <time>2026-07-22T17:52:03Z</time>
      </trkpt>
      <trkpt lat="59.33305277777778" lon="9.484886111111111">
        <ele>253.7</ele>
        <time>2026-07-22T18:06:32Z</time>
      </trkpt>
      <trkpt lat="59.210208333333334" lon="9.56365277777778">
        <ele>92.9</ele>
        <time>2026-07-23T10:55:23Z</time>
      </trkpt>
      <trkpt lat="59.57963055555556" lon="9.17406111111111">
        <ele>23.9</ele>
        <time>2026-07-23T12:20:41Z</time>
      </trkpt>
      <trkpt lat="59.57949444444445" lon="9.174425">
        <ele>19.3</ele>
        <time>2026-07-23T12:21:20Z</time>
      </trkpt>
      <trkpt lat="59.579527777777784" lon="9.175152777777777">
        <ele>25.7</ele>
        <time>2026-07-23T12:22:36Z</time>
      </trkpt>
      <trkpt lat="59.57933333333334" lon="9.176327777777777">
        <ele>24.8</ele>
        <time>2026-07-23T12:25:22Z</time>
      </trkpt>
      <trkpt lat="59.57951111111112" lon="9.176097222222221">
        <ele>26.2</ele>
        <time>2026-07-23T12:26:11Z</time>
      </trkpt>
      <trkpt lat="59.5797" lon="9.175438888888888">
        <ele>24.1</ele>
        <time>2026-07-23T12:28:17Z</time>
      </trkpt>
      <trkpt lat="59.57969722222222" lon="9.175447222222221">
        <ele>24.3</ele>
        <time>2026-07-23T12:28:29Z</time>
      </trkpt>
      <trkpt lat="59.5797" lon="9.175408333333333">
        <ele>23.2</ele>
        <time>2026-07-23T12:28:45Z</time>
      </trkpt>
      <trkpt lat="59.579433333333334" lon="9.176138888888888">
        <ele>24.8</ele>
        <time>2026-07-23T12:30:26Z</time>
      </trkpt>
      <trkpt lat="59.579033333333335" lon="9.175544444444444">
        <ele>26.8</ele>
        <time>2026-07-23T12:35:19Z</time>
      </trkpt>
      <trkpt lat="59.57901666666667" lon="9.175480555555556">
        <ele>26.9</ele>
        <time>2026-07-23T12:37:03Z</time>
      </trkpt>
      <trkpt lat="59.57899722222223" lon="9.175516666666667">
        <ele>26.4</ele>
        <time>2026-07-23T12:37:30Z</time>
      </trkpt>
      <trkpt lat="59.57904722222222" lon="9.17553888888889">
        <ele>26.5</ele>
        <time>2026-07-23T12:38:19Z</time>
      </trkpt>
      <trkpt lat="59.57898333333333" lon="9.17563611111111">
        <ele>27.9</ele>
        <time>2026-07-23T12:39:04Z</time>
      </trkpt>
      <trkpt lat="59.579752777777784" lon="9.174233333333333">
        <ele>26.7</ele>
        <time>2026-07-23T12:45:17Z</time>
      </trkpt>
      <trkpt lat="59.57973888888889" lon="9.174302777777777">
        <ele>23.8</ele>
        <time>2026-07-23T12:55:50Z</time>
      </trkpt>
      <trkpt lat="59.86539722222222" lon="8.934127777777778">
        <ele>197.9</ele>
        <time>2026-07-23T13:49:29Z</time>
      </trkpt>
      <trkpt lat="59.86576388888889" lon="8.933911111111112">
        <ele>197.4</ele>
        <time>2026-07-23T13:49:31Z</time>
      </trkpt>
      <trkpt lat="59.92673611111111" lon="8.800669444444445">
        <ele>194.5</ele>
        <time>2026-07-23T14:13:32Z</time>
      </trkpt>
      <trkpt lat="60.10820833333334" lon="8.738080555555555">
        <ele>638.3</ele>
        <time>2026-07-23T14:57:37Z</time>
      </trkpt>
      <trkpt lat="60.10828333333333" lon="8.737869444444444">
        <ele>635.9</ele>
        <time>2026-07-23T15:02:37Z</time>
      </trkpt>
      <trkpt lat="60.14566111111111" lon="8.632625">
        <ele>970.1</ele>
        <time>2026-07-23T15:17:51Z</time>
      </trkpt>
      <trkpt lat="60.50161388888889" lon="8.217425">
        <ele>1043.0</ele>
        <time>2026-07-23T16:30:25Z</time>
      </trkpt>
      <trkpt lat="60.50161111111111" lon="8.217263888888889">
        <ele>1041.9</ele>
        <time>2026-07-23T17:08:43Z</time>
      </trkpt>
      <trkpt lat="60.501155555555556" lon="8.216574999999999">
        <ele>1040.4</ele>
        <time>2026-07-23T17:28:46Z</time>
      </trkpt>
      <trkpt lat="60.500794444444445" lon="8.215383333333333">
        <ele>1038.5</ele>
        <time>2026-07-23T17:30:44Z</time>
      </trkpt>
      <trkpt lat="60.50077777777778" lon="8.215397222222222">
        <ele>1037.7</ele>
        <time>2026-07-23T17:31:01Z</time>
      </trkpt>
      <trkpt lat="60.50077777777778" lon="8.215397222222222">
        <ele>1037.7</ele>
        <time>2026-07-23T17:31:05Z</time>
      </trkpt>
      <trkpt lat="60.50021666666667" lon="8.21091111111111">
        <ele>1040.5</ele>
        <time>2026-07-23T17:40:14Z</time>
      </trkpt>
      <trkpt lat="60.50041944444445" lon="8.209938888888889">
        <ele>1038.2</ele>
        <time>2026-07-23T17:42:24Z</time>
      </trkpt>
      <trkpt lat="60.50039722222222" lon="8.213944444444444">
        <ele>1035.0</ele>
        <time>2026-07-23T17:55:58Z</time>
      </trkpt>
      <trkpt lat="60.500933333333336" lon="8.215844444444445">
        <ele>1038.8</ele>
        <time>2026-07-23T17:58:54Z</time>
      </trkpt>
      <trkpt lat="60.50106111111111" lon="8.216099999999999">
        <ele>1038.6</ele>
        <time>2026-07-23T17:59:35Z</time>
      </trkpt>
      <trkpt lat="60.50162777777778" lon="8.217427777777777">
        <ele>1042.6</ele>
        <time>2026-07-23T18:23:51Z</time>
      </trkpt>
      <trkpt lat="60.50159166666667" lon="8.217483333333334">
        <ele>1042.0</ele>
        <time>2026-07-23T18:27:48Z</time>
      </trkpt>
      <trkpt lat="60.501575" lon="8.217455555555556">
        <ele>1041.1</ele>
        <time>2026-07-23T18:34:00Z</time>
      </trkpt>
      <trkpt lat="60.501641666666664" lon="8.217283333333333">
        <ele>1040.7</ele>
        <time>2026-07-23T19:03:18Z</time>
      </trkpt>
      <trkpt lat="60.501644444444445" lon="8.217152777777779">
        <ele>1041.7</ele>
        <time>2026-07-24T08:46:57Z</time>
      </trkpt>
      <trkpt lat="60.50170833333333" lon="8.217308333333333">
        <ele>1043.0</ele>
        <time>2026-07-24T09:08:53Z</time>
      </trkpt>
      <trkpt lat="60.50171388888889" lon="8.217269444444444">
        <ele>1042.1</ele>
        <time>2026-07-24T09:42:57Z</time>
      </trkpt>
      <trkpt lat="60.501625" lon="8.217569444444445">
        <ele>1043.0</ele>
        <time>2026-07-24T09:46:44Z</time>
      </trkpt>
      <trkpt lat="60.50168611111111" lon="8.21723888888889">
        <ele>1043.7</ele>
        <time>2026-07-24T10:09:32Z</time>
      </trkpt>
      <trkpt lat="60.501641666666664" lon="8.217205555555555">
        <ele>1041.7</ele>
        <time>2026-07-24T10:10:06Z</time>
      </trkpt>
      <trkpt lat="60.71595277777778" lon="7.822297222222222">
        <ele>997.4</ele>
        <time>2026-07-24T11:54:41Z</time>
      </trkpt>
      <trkpt lat="60.72296111111111" lon="7.770377777777778">
        <ele>1005.7</ele>
        <time>2026-07-24T11:58:22Z</time>
      </trkpt>
      <trkpt lat="60.72295833333334" lon="7.770375">
        <ele>1005.2</ele>
        <time>2026-07-24T11:58:29Z</time>
      </trkpt>
      <trkpt lat="60.85537777777778" lon="7.306305555555555">
        <ele>499.2</ele>
        <time>2026-07-24T12:51:50Z</time>
      </trkpt>
      <trkpt lat="60.85537777777778" lon="7.306541666666666">
        <ele>506.2</ele>
        <time>2026-07-24T12:59:46Z</time>
      </trkpt>
      <trkpt lat="60.85537222222222" lon="7.306541666666666">
        <ele>506.1</ele>
        <time>2026-07-24T12:59:58Z</time>
      </trkpt>
      <trkpt lat="60.91473333333333" lon="7.203227777777778">
        <ele>323.7</ele>
        <time>2026-07-24T13:36:22Z</time>
      </trkpt>
      <trkpt lat="60.91983333333333" lon="7.210008333333334">
        <ele>329.3</ele>
        <time>2026-07-24T13:36:35Z</time>
      </trkpt>
      <trkpt lat="60.91986111111111" lon="7.210105555555556">
        <ele>336.9</ele>
        <time>2026-07-24T13:37:17Z</time>
      </trkpt>
      <trkpt lat="60.92528055555555" lon="7.211422222222223">
        <ele>389.4</ele>
        <time>2026-07-24T13:43:19Z</time>
      </trkpt>
      <trkpt lat="60.90867222222222" lon="7.211969444444445">
        <ele>632.5</ele>
        <time>2026-07-24T13:55:53Z</time>
      </trkpt>
      <trkpt lat="60.90865" lon="7.211980555555556">
        <ele>637.3</ele>
        <time>2026-07-24T13:55:57Z</time>
      </trkpt>
      <trkpt lat="60.90865" lon="7.211875">
        <ele>639.6</ele>
        <time>2026-07-24T13:56:23Z</time>
      </trkpt>
      <trkpt lat="60.90865" lon="7.211875">
        <ele>640.9</ele>
        <time>2026-07-24T13:56:35Z</time>
      </trkpt>
      <trkpt lat="60.90865" lon="7.2118166666666665">
        <ele>641.8</ele>
        <time>2026-07-24T13:58:09Z</time>
      </trkpt>
      <trkpt lat="60.90864166666667" lon="7.211811111111111">
        <ele>641.7</ele>
        <time>2026-07-24T13:58:56Z</time>
      </trkpt>
      <trkpt lat="60.90864166666667" lon="7.211811111111111">
        <ele>642.2</ele>
        <time>2026-07-24T13:58:59Z</time>
      </trkpt>
      <trkpt lat="60.921363888888884" lon="7.203">
        <ele>142.8</ele>
        <time>2026-07-24T14:31:35Z</time>
      </trkpt>
      <trkpt lat="60.92091388888888" lon="7.2032138888888895">
        <ele>138.2</ele>
        <time>2026-07-24T14:31:53Z</time>
      </trkpt>
      <trkpt lat="60.86374166666667" lon="7.117988888888888">
        <ele>7.1</ele>
        <time>2026-07-24T15:04:33Z</time>
      </trkpt>
      <trkpt lat="60.863772222222224" lon="7.118105555555555">
        <ele>10.9</ele>
        <time>2026-07-24T15:07:35Z</time>
      </trkpt>
      <trkpt lat="60.86321944444445" lon="7.116555555555555">
        <ele>9.3</ele>
        <time>2026-07-24T15:10:54Z</time>
      </trkpt>
      <trkpt lat="60.86315833333334" lon="7.116549999999999">
        <ele>8.1</ele>
        <time>2026-07-24T15:11:13Z</time>
      </trkpt>
      <trkpt lat="60.8634" lon="7.115830555555555">
        <ele>8.4</ele>
        <time>2026-07-24T15:21:21Z</time>
      </trkpt>
      <trkpt lat="60.86316388888889" lon="7.115572222222222">
        <ele>-1.6</ele>
        <time>2026-07-24T15:24:59Z</time>
      </trkpt>
      <trkpt lat="60.8629" lon="7.113297222222222">
        <ele>9.0</ele>
        <time>2026-07-24T15:50:22Z</time>
      </trkpt>
      <trkpt lat="60.862944444444445" lon="7.113494444444444">
        <ele>9.4</ele>
        <time>2026-07-24T15:53:34Z</time>
      </trkpt>
      <trkpt lat="60.86295833333333" lon="7.113575">
        <ele>9.5</ele>
        <time>2026-07-24T16:00:02Z</time>
      </trkpt>
      <trkpt lat="60.85243611111111" lon="7.110658333333333">
        <time>2026-07-24T16:09:40Z</time>
      </trkpt>
      <trkpt lat="60.74701666666667" lon="7.136005555555556">
        <ele>663.4</ele>
        <time>2026-07-24T16:41:24Z</time>
      </trkpt>
      <trkpt lat="60.74702777777778" lon="7.135983333333334">
        <ele>666.1</ele>
        <time>2026-07-24T16:41:28Z</time>
      </trkpt>
      <trkpt lat="60.74701666666667" lon="7.135975">
        <ele>674.8</ele>
        <time>2026-07-24T16:44:25Z</time>
      </trkpt>
      <trkpt lat="60.747036111111115" lon="7.135975">
        <ele>672.7</ele>
        <time>2026-07-24T16:44:30Z</time>
      </trkpt>
      <trkpt lat="60.74700555555555" lon="7.136002777777779">
        <ele>673.7</ele>
        <time>2026-07-24T16:45:05Z</time>
      </trkpt>
      <trkpt lat="60.746608333333334" lon="7.128172222222222">
        <time>2026-07-24T16:49:21Z</time>
      </trkpt>
      <trkpt lat="60.74401944444445" lon="7.130405555555555">
        <ele>821.8</ele>
        <time>2026-07-24T17:11:57Z</time>
      </trkpt>
      <trkpt lat="60.74695833333333" lon="7.135922222222223">
        <ele>681.8</ele>
        <time>2026-07-24T17:20:57Z</time>
      </trkpt>
      <trkpt lat="60.74723888888889" lon="7.136">
        <ele>675.7</ele>
        <time>2026-07-24T17:22:31Z</time>
      </trkpt>
      <trkpt lat="60.863147222222224" lon="7.113933333333333">
        <ele>9.3</ele>
        <time>2026-07-24T18:03:16Z</time>
      </trkpt>
      <trkpt lat="60.911833333333334" lon="7.1936638888888895">
        <ele>72.8</ele>
        <time>2026-07-24T18:38:01Z</time>
      </trkpt>
      <trkpt lat="60.91179722222222" lon="7.193963888888889">
        <ele>74.7</ele>
        <time>2026-07-24T18:38:53Z</time>
      </trkpt>
      <trkpt lat="60.911788888888886" lon="7.193447222222223">
        <ele>72.7</ele>
        <time>2026-07-24T18:55:07Z</time>
      </trkpt>
      <trkpt lat="60.91185" lon="7.193405555555556">
        <ele>71.4</ele>
        <time>2026-07-24T18:55:49Z</time>
      </trkpt>
      <trkpt lat="60.911791666666666" lon="7.194016666666667">
        <ele>75.7</ele>
        <time>2026-07-24T19:42:53Z</time>
      </trkpt>
      <trkpt lat="60.91172777777778" lon="7.193505555555555">
        <ele>77.6</ele>
        <time>2026-07-24T20:08:19Z</time>
      </trkpt>
      <trkpt lat="60.91191388888889" lon="7.1932888888888895">
        <ele>71.4</ele>
        <time>2026-07-24T20:10:29Z</time>
      </trkpt>
      <trkpt lat="60.911880555555555" lon="7.1937194444444446">
        <ele>72.8</ele>
        <time>2026-07-24T20:39:26Z</time>
      </trkpt>
      <trkpt lat="60.91177777777778" lon="7.194058333333333">
        <ele>78.7</ele>
        <time>2026-07-24T20:39:49Z</time>
      </trkpt>
      <trkpt lat="60.91178055555555" lon="7.194027777777778">
        <ele>69.1</ele>
        <time>2026-07-24T21:09:23Z</time>
      </trkpt>
      <trkpt lat="60.91181944444444" lon="7.194080555555556">
        <ele>74.3</ele>
        <time>2026-07-24T22:11:17Z</time>
      </trkpt>
      <trkpt lat="60.91181666666667" lon="7.194086111111111">
        <ele>74.3</ele>
        <time>2026-07-24T22:12:17Z</time>
      </trkpt>
      <trkpt lat="60.91181944444444" lon="7.193625">
        <ele>78.2</ele>
        <time>2026-07-24T22:40:59Z</time>
      </trkpt>
      <trkpt lat="60.91182222222222" lon="7.193616666666667">
        <ele>78.1</ele>
        <time>2026-07-24T22:41:02Z</time>
      </trkpt>
      <trkpt lat="60.911788888888886" lon="7.193672222222222">
        <ele>84.8</ele>
        <time>2026-07-24T22:41:06Z</time>
      </trkpt>
      <trkpt lat="60.911769444444445" lon="7.193616666666667">
        <ele>82.7</ele>
        <time>2026-07-24T22:41:10Z</time>
      </trkpt>
      <trkpt lat="60.91174722222222" lon="7.193583333333334">
        <ele>87.5</ele>
        <time>2026-07-24T22:41:36Z</time>
      </trkpt>
      <trkpt lat="60.91180833333333" lon="7.194058333333333">
        <ele>74.6</ele>
        <time>2026-07-25T07:34:01Z</time>
      </trkpt>
      <trkpt lat="60.911769444444445" lon="7.193472222222223">
        <ele>71.5</ele>
        <time>2026-07-25T09:03:22Z</time>
      </trkpt>
      <trkpt lat="60.91178611111111" lon="7.1932888888888895">
        <ele>68.5</ele>
        <time>2026-07-25T09:04:34Z</time>
      </trkpt>
      <trkpt lat="60.91180555555555" lon="7.194052777777778">
        <ele>76.9</ele>
        <time>2026-07-25T09:13:25Z</time>
      </trkpt>
      <trkpt lat="60.86293333333334" lon="7.114977777777778">
        <ele>4.9</ele>
        <time>2026-07-25T09:56:52Z</time>
      </trkpt>
      <trkpt lat="60.862944444444445" lon="7.115069444444444">
        <ele>7.4</ele>
        <time>2026-07-25T09:56:59Z</time>
      </trkpt>
      <trkpt lat="60.863061111111115" lon="7.1165611111111104">
        <ele>8.7</ele>
        <time>2026-07-25T09:59:45Z</time>
      </trkpt>
      <trkpt lat="60.86291111111111" lon="7.116091666666667">
        <ele>5.4</ele>
        <time>2026-07-25T10:02:10Z</time>
      </trkpt>
      <trkpt lat="60.86301111111111" lon="7.116130555555555">
        <ele>1.9</ele>
        <time>2026-07-25T10:05:58Z</time>
      </trkpt>
      <trkpt lat="60.862808333333334" lon="7.1166277777777776">
        <ele>40.9</ele>
        <time>2026-07-25T10:19:58Z</time>
      </trkpt>
      <trkpt lat="60.86253333333333" lon="7.117566666666666">
        <ele>23.3</ele>
        <time>2026-07-25T10:20:34Z</time>
      </trkpt>
      <trkpt lat="60.86289722222222" lon="7.116655555555555">
        <ele>9.3</ele>
        <time>2026-07-25T10:22:16Z</time>
      </trkpt>
      <trkpt lat="60.862575" lon="7.119791666666666">
        <ele>-7.9</ele>
        <time>2026-07-25T10:22:32Z</time>
      </trkpt>
      <trkpt lat="60.86966388888889" lon="7.131374999999999">
        <ele>11.7</ele>
        <time>2026-07-25T10:28:03Z</time>
      </trkpt>
      <trkpt lat="60.945116666666664" lon="7.140844444444445">
        <ele>-15.4</ele>
        <time>2026-07-25T10:52:04Z</time>
      </trkpt>
      <trkpt lat="60.98679444444444" lon="7.050636111111111">
        <ele>-3.1</ele>
        <time>2026-07-25T11:08:51Z</time>
      </trkpt>
      <trkpt lat="60.98520555555556" lon="7.041052777777778">
        <ele>5.5</ele>
        <time>2026-07-25T11:10:17Z</time>
      </trkpt>
      <trkpt lat="60.98265" lon="7.033630555555556">
        <ele>8.0</ele>
        <time>2026-07-25T11:11:29Z</time>
      </trkpt>
      <trkpt lat="60.982058333333335" lon="7.031875">
        <ele>10.0</ele>
        <time>2026-07-25T11:11:43Z</time>
      </trkpt>
      <trkpt lat="60.97889444444445" lon="7.021586111111111">
        <ele>-4.2</ele>
        <time>2026-07-25T11:13:25Z</time>
      </trkpt>
      <trkpt lat="60.97866944444445" lon="7.021213888888889">
        <ele>-4.7</ele>
        <time>2026-07-25T11:13:29Z</time>
      </trkpt>
      <trkpt lat="60.978569444444446" lon="7.020269444444445">
        <ele>6.5</ele>
        <time>2026-07-25T11:13:37Z</time>
      </trkpt>
      <trkpt lat="60.97848055555556" lon="7.019461111111111">
        <ele>7.8</ele>
        <time>2026-07-25T11:13:43Z</time>
      </trkpt>
      <trkpt lat="60.978005555555555" lon="7.011133333333333">
        <ele>6.9</ele>
        <time>2026-07-25T11:15:25Z</time>
      </trkpt>
      <trkpt lat="60.97780277777778" lon="7.010383333333333">
        <ele>18.3</ele>
        <time>2026-07-25T11:16:05Z</time>
      </trkpt>
      <trkpt lat="60.969411111111114" lon="6.991186111111111">
        <ele>8.1</ele>
        <time>2026-07-25T11:19:41Z</time>
      </trkpt>
      <trkpt lat="60.95915277777778" lon="6.963044444444445">
        <ele>1.0</ele>
        <time>2026-07-25T11:24:05Z</time>
      </trkpt>
      <trkpt lat="60.918530555555556" lon="6.873594444444445">
        <ele>9.3</ele>
        <time>2026-07-25T11:48:45Z</time>
      </trkpt>
      <trkpt lat="60.90900555555555" lon="6.870144444444445">
        <ele>74.7</ele>
        <time>2026-07-25T11:53:07Z</time>
      </trkpt>
      <trkpt lat="60.89578611111111" lon="6.860416666666667">
        <ele>6.7</ele>
        <time>2026-07-25T11:59:16Z</time>
      </trkpt>
      <trkpt lat="60.89528611111111" lon="6.859977777777777">
        <ele>8.6</ele>
        <time>2026-07-25T11:59:34Z</time>
      </trkpt>
      <trkpt lat="60.89141111111111" lon="6.846716666666667">
        <ele>216.8</ele>
        <time>2026-07-25T12:05:13Z</time>
      </trkpt>
      <trkpt lat="60.881375" lon="6.842225">
        <ele>8.1</ele>
        <time>2026-07-25T12:14:37Z</time>
      </trkpt>
      <trkpt lat="60.88105" lon="6.842427777777777">
        <ele>5.0</ele>
        <time>2026-07-25T12:27:29Z</time>
      </trkpt>
      <trkpt lat="60.88106666666667" lon="6.842441666666667">
        <ele>5.0</ele>
        <time>2026-07-25T12:27:40Z</time>
      </trkpt>
      <trkpt lat="60.88083611111111" lon="6.8421611111111105">
        <ele>8.1</ele>
        <time>2026-07-25T12:29:11Z</time>
      </trkpt>
      <trkpt lat="60.88056944444445" lon="6.843683333333333">
        <ele>5.7</ele>
        <time>2026-07-25T12:33:25Z</time>
      </trkpt>
      <trkpt lat="60.879866666666665" lon="6.843305555555555">
        <ele>6.9</ele>
        <time>2026-07-25T12:47:42Z</time>
      </trkpt>
      <trkpt lat="60.87987777777778" lon="6.843297222222222">
        <ele>7.8</ele>
        <time>2026-07-25T12:47:51Z</time>
      </trkpt>
      <trkpt lat="60.879044444444446" lon="6.8423">
        <ele>10.6</ele>
        <time>2026-07-25T12:59:19Z</time>
      </trkpt>
      <trkpt lat="60.87904722222222" lon="6.842172222222222">
        <ele>8.7</ele>
        <time>2026-07-25T13:00:29Z</time>
      </trkpt>
      <trkpt lat="60.87927222222222" lon="6.842577777777778">
        <ele>9.6</ele>
        <time>2026-07-25T13:04:34Z</time>
      </trkpt>
      <trkpt lat="60.87914722222222" lon="6.842491666666667">
        <ele>5.0</ele>
        <time>2026-07-25T13:11:32Z</time>
      </trkpt>
      <trkpt lat="60.87925" lon="6.842033333333333">
        <ele>2.5</ele>
        <time>2026-07-25T13:12:42Z</time>
      </trkpt>
      <trkpt lat="60.87922777777778" lon="6.841947222222222">
        <ele>8.8</ele>
        <time>2026-07-25T13:15:02Z</time>
      </trkpt>
      <trkpt lat="60.879352777777775" lon="6.841855555555555">
        <ele>11.8</ele>
        <time>2026-07-25T13:22:32Z</time>
      </trkpt>
      <trkpt lat="60.878994444444444" lon="6.841958333333333">
        <ele>8.8</ele>
        <time>2026-07-25T13:25:04Z</time>
      </trkpt>
      <trkpt lat="60.87941388888889" lon="6.842119444444444">
        <ele>11.3</ele>
        <time>2026-07-25T13:25:09Z</time>
      </trkpt>
      <trkpt lat="60.87897777777778" lon="6.842524999999999">
        <ele>9.4</ele>
        <time>2026-07-25T13:37:03Z</time>
      </trkpt>
      <trkpt lat="60.87900833333333" lon="6.841952777777777">
        <ele>11.9</ele>
        <time>2026-07-25T13:48:17Z</time>
      </trkpt>
      <trkpt lat="60.878905555555555" lon="6.8417055555555555">
        <ele>10.0</ele>
        <time>2026-07-25T13:48:27Z</time>
      </trkpt>
      <trkpt lat="60.878433333333334" lon="6.841202777777777">
        <ele>6.3</ele>
        <time>2026-07-25T13:50:48Z</time>
      </trkpt>
      <trkpt lat="60.87853611111111" lon="6.841486111111111">
        <ele>6.1</ele>
        <time>2026-07-25T14:02:14Z</time>
      </trkpt>
      <trkpt lat="60.87853611111111" lon="6.841486111111111">
        <ele>6.3</ele>
        <time>2026-07-25T14:02:15Z</time>
      </trkpt>
      <trkpt lat="60.87852777777778" lon="6.841480555555555">
        <ele>7.0</ele>
        <time>2026-07-25T14:02:47Z</time>
      </trkpt>
      <trkpt lat="60.87867777777778" lon="6.841572222222222">
        <ele>7.4</ele>
        <time>2026-07-25T14:06:39Z</time>
      </trkpt>
      <trkpt lat="60.878883333333334" lon="6.841613888888888">
        <ele>6.9</ele>
        <time>2026-07-25T14:08:34Z</time>
      </trkpt>
      <trkpt lat="60.87916111111111" lon="6.842238888888889">
        <ele>3.4</ele>
        <time>2026-07-25T14:10:12Z</time>
      </trkpt>
      <trkpt lat="60.87928055555555" lon="6.8425972222222216">
        <ele>5.1</ele>
        <time>2026-07-25T14:10:41Z</time>
      </trkpt>
      <trkpt lat="60.87940277777778" lon="6.842172222222222">
        <ele>15.2</ele>
        <time>2026-07-25T14:24:22Z</time>
      </trkpt>
      <trkpt lat="60.879441666666665" lon="6.842169444444444">
        <ele>1.6</ele>
        <time>2026-07-25T14:27:59Z</time>
      </trkpt>
      <trkpt lat="60.879783333333336" lon="6.8417055555555555">
        <ele>14.0</ele>
        <time>2026-07-25T15:53:32Z</time>
      </trkpt>
      <trkpt lat="60.87942777777778" lon="6.842180555555555">
        <ele>1.2</ele>
        <time>2026-07-25T15:54:07Z</time>
      </trkpt>
      <trkpt lat="60.88001666666667" lon="6.8434">
        <ele>1.6</ele>
        <time>2026-07-25T16:42:01Z</time>
      </trkpt>
      <trkpt lat="60.881169444444446" lon="6.8417861111111105">
        <ele>-40.0</ele>
        <time>2026-07-25T16:51:49Z</time>
      </trkpt>
      <trkpt lat="60.88126666666667" lon="6.841638888888888">
        <ele>8.0</ele>
        <time>2026-07-25T17:09:35Z</time>
      </trkpt>
      <trkpt lat="60.88127222222222" lon="6.841644444444444">
        <ele>6.4</ele>
        <time>2026-07-25T17:09:45Z</time>
      </trkpt>
      <trkpt lat="60.881119444444444" lon="6.841869444444444">
        <ele>8.2</ele>
        <time>2026-07-25T17:12:06Z</time>
      </trkpt>
      <trkpt lat="60.92435555555555" lon="6.872405555555556">
        <ele>-1.4</ele>
        <time>2026-07-25T17:47:04Z</time>
      </trkpt>
      <trkpt lat="60.92468888888889" lon="6.872661111111111">
        <ele>-9.5</ele>
        <time>2026-07-25T17:47:12Z</time>
      </trkpt>
      <trkpt lat="60.93798333333333" lon="6.903063888888889">
        <ele>10.3</ele>
        <time>2026-07-25T17:55:52Z</time>
      </trkpt>
      <trkpt lat="60.94993888888889" lon="6.944530555555556">
        <ele>17.9</ele>
        <time>2026-07-25T18:05:49Z</time>
      </trkpt>
      <trkpt lat="60.968155555555555" lon="6.992030555555556">
        <ele>6.7</ele>
        <time>2026-07-25T18:13:08Z</time>
      </trkpt>
      <trkpt lat="60.97485277777778" lon="7.007213888888889">
        <ele>8.1</ele>
        <time>2026-07-25T18:15:33Z</time>
      </trkpt>
      <trkpt lat="60.97529166666667" lon="7.008213888888889">
        <ele>7.4</ele>
        <time>2026-07-25T18:15:44Z</time>
      </trkpt>
      <trkpt lat="60.97779444444445" lon="7.009763888888889">
        <ele>-54.1</ele>
        <time>2026-07-25T18:17:43Z</time>
      </trkpt>
      <trkpt lat="60.978233333333336" lon="7.01025">
        <ele>21.6</ele>
        <time>2026-07-25T18:18:28Z</time>
      </trkpt>
      <trkpt lat="60.97833888888889" lon="7.010222222222223">
        <ele>10.7</ele>
        <time>2026-07-25T18:19:14Z</time>
      </trkpt>
      <trkpt lat="60.97768888888889" lon="7.010588888888889">
        <ele>12.9</ele>
        <time>2026-07-25T18:20:45Z</time>
      </trkpt>
      <trkpt lat="60.97779722222222" lon="7.0174666666666665">
        <ele>30.2</ele>
        <time>2026-07-25T18:23:22Z</time>
      </trkpt>
      <trkpt lat="60.985175" lon="7.054763888888889">
        <ele>36.7</ele>
        <time>2026-07-25T18:27:27Z</time>
      </trkpt>
      <trkpt lat="60.911858333333335" lon="7.193675">
        <ele>89.3</ele>
        <time>2026-07-25T20:27:40Z</time>
      </trkpt>
      <trkpt lat="60.911791666666666" lon="7.194088888888889">
        <ele>70.3</ele>
        <time>2026-07-26T01:38:15Z</time>
      </trkpt>
      <trkpt lat="60.91182222222222" lon="7.194066666666667">
        <ele>76.6</ele>
        <time>2026-07-26T01:38:39Z</time>
      </trkpt>
      <trkpt lat="60.91182222222222" lon="7.1938">
        <ele>66.2</ele>
        <time>2026-07-26T01:39:11Z</time>
      </trkpt>
      <trkpt lat="60.911830555555554" lon="7.1940333333333335">
        <ele>79.0</ele>
        <time>2026-07-26T08:25:52Z</time>
      </trkpt>
      <trkpt lat="60.911811111111106" lon="7.193897222222223">
        <ele>77.9</ele>
        <time>2026-07-26T08:51:05Z</time>
      </trkpt>
      <trkpt lat="61.14895" lon="7.380694444444444">
        <ele>9.9</ele>
        <time>2026-07-26T10:26:28Z</time>
      </trkpt>
      <trkpt lat="61.149502777777776" lon="7.3788472222222214">
        <ele>6.0</ele>
        <time>2026-07-26T10:27:08Z</time>
      </trkpt>
      <trkpt lat="61.43814722222222" lon="6.761030555555555">
        <ele>16.2</ele>
        <time>2026-07-26T11:53:51Z</time>
      </trkpt>
      <trkpt lat="61.465316666666666" lon="6.740652777777778">
        <ele>100.0</ele>
        <time>2026-07-26T11:56:45Z</time>
      </trkpt>
      <trkpt lat="61.818025000000006" lon="6.810383333333333">
        <ele>25.9</ele>
        <time>2026-07-26T13:22:07Z</time>
      </trkpt>
      <trkpt lat="61.81798055555556" lon="6.8103">
        <ele>13.2</ele>
        <time>2026-07-26T13:24:23Z</time>
      </trkpt>
      <trkpt lat="61.855219444444444" lon="6.815727777777777">
        <ele>4.1</ele>
        <time>2026-07-26T13:58:38Z</time>
      </trkpt>
      <trkpt lat="61.868225" lon="6.828352777777778">
        <ele>9.1</ele>
        <time>2026-07-26T14:01:24Z</time>
      </trkpt>
      <trkpt lat="61.902425" lon="7.075255555555556">
        <ele>33.1</ele>
        <time>2026-07-26T14:52:11Z</time>
      </trkpt>
      <trkpt lat="61.93501388888888" lon="7.248783333333334">
        <ele>317.3</ele>
        <time>2026-07-26T15:03:54Z</time>
      </trkpt>
      <trkpt lat="61.93758333333333" lon="7.263058333333333">
        <ele>474.1</ele>
        <time>2026-07-26T15:08:21Z</time>
      </trkpt>
      <trkpt lat="61.93758888888888" lon="7.263055555555556">
        <ele>472.3</ele>
        <time>2026-07-26T15:08:57Z</time>
      </trkpt>
      <trkpt lat="62.05844444444444" lon="7.271616666666667">
        <ele>656.7</ele>
        <time>2026-07-26T15:55:37Z</time>
      </trkpt>
      <trkpt lat="62.05839444444444" lon="7.271927777777778">
        <ele>655.5</ele>
        <time>2026-07-26T15:56:57Z</time>
      </trkpt>
      <trkpt lat="62.058658333333334" lon="7.270475">
        <ele>651.0</ele>
        <time>2026-07-26T15:58:15Z</time>
      </trkpt>
      <trkpt lat="62.09467777777778" lon="7.223136111111112">
        <ele>204.7</ele>
        <time>2026-07-26T16:15:27Z</time>
      </trkpt>
      <trkpt lat="62.09449722222222" lon="7.223238888888889">
        <ele>199.5</ele>
        <time>2026-07-26T16:15:37Z</time>
      </trkpt>
      <trkpt lat="62.0946" lon="7.223255555555555">
        <ele>200.3</ele>
        <time>2026-07-26T16:16:05Z</time>
      </trkpt>
      <trkpt lat="62.09459722222223" lon="7.223222222222223">
        <ele>202.3</ele>
        <time>2026-07-26T16:43:39Z</time>
      </trkpt>
      <trkpt lat="62.09468888888889" lon="7.223055555555556">
        <ele>200.1</ele>
        <time>2026-07-26T17:03:16Z</time>
      </trkpt>
      <trkpt lat="62.094638888888895" lon="7.2232">
        <ele>200.0</ele>
        <time>2026-07-26T17:03:22Z</time>
      </trkpt>
      <trkpt lat="62.09465" lon="7.2231805555555555">
        <ele>198.9</ele>
        <time>2026-07-26T17:03:37Z</time>
      </trkpt>
      <trkpt lat="62.09467777777778" lon="7.223108333333333">
        <ele>198.8</ele>
        <time>2026-07-26T17:04:17Z</time>
      </trkpt>
      <trkpt lat="62.09465277777778" lon="7.223108333333333">
        <ele>206.8</ele>
        <time>2026-07-26T17:06:29Z</time>
      </trkpt>
      <trkpt lat="62.0946" lon="7.223172222222223">
        <ele>201.0</ele>
        <time>2026-07-26T17:08:28Z</time>
      </trkpt>
      <trkpt lat="62.09462222222223" lon="7.2232">
        <ele>202.1</ele>
        <time>2026-07-26T17:10:23Z</time>
      </trkpt>
      <trkpt lat="62.09462222222223" lon="7.2232">
        <ele>202.1</ele>
        <time>2026-07-26T17:10:33Z</time>
      </trkpt>
      <trkpt lat="62.09462222222223" lon="7.2232">
        <ele>202.1</ele>
        <time>2026-07-26T17:10:38Z</time>
      </trkpt>
      <trkpt lat="62.09463055555556" lon="7.223130555555556">
        <ele>207.0</ele>
        <time>2026-07-26T17:11:34Z</time>
      </trkpt>
      <trkpt lat="62.094636111111114" lon="7.223108333333333">
        <ele>206.4</ele>
        <time>2026-07-26T17:11:42Z</time>
      </trkpt>
      <trkpt lat="62.09464166666667" lon="7.223105555555556">
        <ele>201.7</ele>
        <time>2026-07-26T17:12:06Z</time>
      </trkpt>
      <trkpt lat="62.09461666666667" lon="7.223113888888889">
        <ele>200.7</ele>
        <time>2026-07-26T17:12:26Z</time>
      </trkpt>
      <trkpt lat="62.094611111111114" lon="7.223136111111112">
        <ele>201.3</ele>
        <time>2026-07-26T17:12:29Z</time>
      </trkpt>
      <trkpt lat="62.09461944444445" lon="7.2231250000000005">
        <ele>201.9</ele>
        <time>2026-07-26T17:12:35Z</time>
      </trkpt>
      <trkpt lat="62.09461666666667" lon="7.223127777777778">
        <ele>204.4</ele>
        <time>2026-07-26T17:12:54Z</time>
      </trkpt>
      <trkpt lat="62.094638888888895" lon="7.223108333333333">
        <ele>206.1</ele>
        <time>2026-07-26T17:12:57Z</time>
      </trkpt>
      <trkpt lat="62.09462777777778" lon="7.223127777777778">
        <ele>204.3</ele>
        <time>2026-07-26T17:13:01Z</time>
      </trkpt>
      <trkpt lat="62.09462777777778" lon="7.223161111111112">
        <ele>202.6</ele>
        <time>2026-07-26T17:13:31Z</time>
      </trkpt>
      <trkpt lat="62.09462777777778" lon="7.223161111111112">
        <ele>202.6</ele>
        <time>2026-07-26T17:13:38Z</time>
      </trkpt>
      <trkpt lat="62.09462777777778" lon="7.223161111111112">
        <ele>202.6</ele>
        <time>2026-07-26T17:13:47Z</time>
      </trkpt>
      <trkpt lat="62.10107777777778" lon="7.204930555555555">
        <ele>5.2</ele>
        <time>2026-07-26T17:34:00Z</time>
      </trkpt>
      <trkpt lat="62.100994444444446" lon="7.205533333333333">
        <ele>9.6</ele>
        <time>2026-07-26T17:58:46Z</time>
      </trkpt>
      <trkpt lat="62.09461944444445" lon="7.2231861111111115">
        <ele>202.6</ele>
        <time>2026-07-26T19:32:22Z</time>
      </trkpt>
      <trkpt lat="62.094658333333335" lon="7.224202777777778">
        <ele>226.3</ele>
        <time>2026-07-26T20:15:09Z</time>
      </trkpt>
      <trkpt lat="62.09475277777778" lon="7.224202777777778">
        <ele>219.7</ele>
        <time>2026-07-26T20:16:03Z</time>
      </trkpt>
      <trkpt lat="62.09465" lon="7.225238888888889">
        <ele>229.8</ele>
        <time>2026-07-26T20:20:28Z</time>
      </trkpt>
      <trkpt lat="62.09504444444445" lon="7.225366666666667">
        <ele>252.5</ele>
        <time>2026-07-26T20:20:59Z</time>
      </trkpt>
      <trkpt lat="62.0948" lon="7.2247972222222225">
        <ele>224.0</ele>
        <time>2026-07-26T20:22:23Z</time>
      </trkpt>
      <trkpt lat="62.09482222222223" lon="7.224872222222222">
        <ele>225.6</ele>
        <time>2026-07-26T20:22:51Z</time>
      </trkpt>
      <trkpt lat="62.094638888888895" lon="7.223058333333333">
        <ele>203.0</ele>
        <time>2026-07-26T22:55:42Z</time>
      </trkpt>
      <trkpt lat="62.094636111111114" lon="7.223163888888889">
        <ele>224.8</ele>
        <time>2026-07-27T00:23:39Z</time>
      </trkpt>
      <trkpt lat="62.09462777777778" lon="7.223161111111112">
        <ele>202.7</ele>
        <time>2026-07-27T09:06:48Z</time>
      </trkpt>
      <trkpt lat="62.09464722222222" lon="7.223163888888889">
        <ele>202.0</ele>
        <time>2026-07-27T09:08:36Z</time>
      </trkpt>
      <trkpt lat="62.09461944444445" lon="7.223161111111112">
        <ele>198.7</ele>
        <time>2026-07-27T09:08:45Z</time>
      </trkpt>
      <trkpt lat="62.094591666666666" lon="7.223225">
        <ele>200.9</ele>
        <time>2026-07-27T09:08:55Z</time>
      </trkpt>
      <trkpt lat="62.09462222222223" lon="7.223161111111112">
        <ele>202.7</ele>
        <time>2026-07-27T09:10:36Z</time>
      </trkpt>
      <trkpt lat="62.09462777777778" lon="7.223161111111112">
        <ele>202.7</ele>
        <time>2026-07-27T09:13:10Z</time>
      </trkpt>
      <trkpt lat="62.09461666666667" lon="7.223172222222223">
        <ele>203.3</ele>
        <time>2026-07-27T09:29:23Z</time>
      </trkpt>
      <trkpt lat="62.094611111111114" lon="7.223188888888889">
        <ele>193.1</ele>
        <time>2026-07-27T09:29:28Z</time>
      </trkpt>
      <trkpt lat="62.101391666666665" lon="7.205444444444445">
        <ele>5.7</ele>
        <time>2026-07-27T11:35:15Z</time>
      </trkpt>
      <trkpt lat="62.0983" lon="7.204719444444445">
        <ele>16.7</ele>
        <time>2026-07-27T11:42:19Z</time>
      </trkpt>
      <trkpt lat="62.098216666666666" lon="7.204841666666667">
        <ele>10.6</ele>
        <time>2026-07-27T11:43:09Z</time>
      </trkpt>
      <trkpt lat="62.098216666666666" lon="7.204847222222222">
        <ele>10.6</ele>
        <time>2026-07-27T11:43:13Z</time>
      </trkpt>
      <trkpt lat="62.098225" lon="7.204863888888889">
        <ele>8.2</ele>
        <time>2026-07-27T11:43:47Z</time>
      </trkpt>
      <trkpt lat="62.09758888888889" lon="7.2059194444444445">
        <ele>29.8</ele>
        <time>2026-07-27T11:46:25Z</time>
      </trkpt>
      <trkpt lat="62.09748333333334" lon="7.206894444444445">
        <ele>27.6</ele>
        <time>2026-07-27T11:48:37Z</time>
      </trkpt>
      <trkpt lat="62.09750833333334" lon="7.206966666666667">
        <ele>33.6</ele>
        <time>2026-07-27T11:50:41Z</time>
      </trkpt>
      <trkpt lat="62.09749722222222" lon="7.207061111111111">
        <ele>48.5</ele>
        <time>2026-07-27T11:50:47Z</time>
      </trkpt>
      <trkpt lat="62.097325000000005" lon="7.207441666666667">
        <ele>42.7</ele>
        <time>2026-07-27T11:52:01Z</time>
      </trkpt>
      <trkpt lat="62.09722222222222" lon="7.207783333333333">
        <ele>56.9</ele>
        <time>2026-07-27T11:53:19Z</time>
      </trkpt>
      <trkpt lat="62.096919444444445" lon="7.207913888888889">
        <ele>68.2</ele>
        <time>2026-07-27T11:54:54Z</time>
      </trkpt>
      <trkpt lat="62.09722222222222" lon="7.207777777777778">
        <ele>61.8</ele>
        <time>2026-07-27T11:55:10Z</time>
      </trkpt>
      <trkpt lat="62.097" lon="7.208127777777778">
        <ele>66.9</ele>
        <time>2026-07-27T11:55:35Z</time>
      </trkpt>
      <trkpt lat="62.09699722222222" lon="7.208083333333334">
        <ele>69.1</ele>
        <time>2026-07-27T11:55:47Z</time>
      </trkpt>
      <trkpt lat="62.09708055555556" lon="7.208180555555556">
        <ele>69.1</ele>
        <time>2026-07-27T11:57:15Z</time>
      </trkpt>
      <trkpt lat="62.09710277777778" lon="7.208316666666667">
        <ele>71.3</ele>
        <time>2026-07-27T11:58:15Z</time>
      </trkpt>
      <trkpt lat="62.097072222222224" lon="7.208205555555556">
        <ele>69.0</ele>
        <time>2026-07-27T11:58:19Z</time>
      </trkpt>
      <trkpt lat="62.09659166666667" lon="7.2089083333333335">
        <ele>76.1</ele>
        <time>2026-07-27T12:03:22Z</time>
      </trkpt>
      <trkpt lat="62.09600555555556" lon="7.209355555555556">
        <ele>80.8</ele>
        <time>2026-07-27T12:06:12Z</time>
      </trkpt>
      <trkpt lat="62.09571944444445" lon="7.211533333333334">
        <ele>82.2</ele>
        <time>2026-07-27T12:15:12Z</time>
      </trkpt>
      <trkpt lat="62.09572222222222" lon="7.2100638888888895">
        <ele>83.7</ele>
        <time>2026-07-27T12:41:00Z</time>
      </trkpt>
      <trkpt lat="62.09574166666667" lon="7.21">
        <ele>85.8</ele>
        <time>2026-07-27T12:41:14Z</time>
      </trkpt>
      <trkpt lat="62.09576666666667" lon="7.2099166666666665">
        <ele>84.8</ele>
        <time>2026-07-27T12:41:24Z</time>
      </trkpt>
      <trkpt lat="62.10096111111111" lon="7.204436111111112">
        <ele>8.8</ele>
        <time>2026-07-27T13:10:08Z</time>
      </trkpt>
      <trkpt lat="62.101711111111115" lon="7.204902777777778">
        <ele>2.3</ele>
        <time>2026-07-27T13:29:38Z</time>
      </trkpt>
      <trkpt lat="62.10098333333333" lon="7.2044500000000005">
        <ele>4.9</ele>
        <time>2026-07-27T13:33:28Z</time>
      </trkpt>
      <trkpt lat="62.100975" lon="7.2044805555555556">
        <ele>5.2</ele>
        <time>2026-07-27T13:33:45Z</time>
      </trkpt>
      <trkpt lat="62.10176944444444" lon="7.206533333333334">
        <ele>3.9</ele>
        <time>2026-07-27T14:15:53Z</time>
      </trkpt>
      <trkpt lat="62.102294444444446" lon="7.205966666666667">
        <ele>23.4</ele>
        <time>2026-07-27T14:19:43Z</time>
      </trkpt>
      <trkpt lat="62.102375" lon="7.205583333333333">
        <ele>9.6</ele>
        <time>2026-07-27T14:20:11Z</time>
      </trkpt>
      <trkpt lat="62.10187222222223" lon="7.206025">
        <ele>6.7</ele>
        <time>2026-07-27T14:47:43Z</time>
      </trkpt>
      <trkpt lat="62.101936111111115" lon="7.205988888888889">
        <ele>5.9</ele>
        <time>2026-07-27T14:47:53Z</time>
      </trkpt>
      <trkpt lat="62.101975" lon="7.205225">
        <ele>8.7</ele>
        <time>2026-07-27T15:00:47Z</time>
      </trkpt>
      <trkpt lat="62.101483333333334" lon="7.205263888888889">
        <ele>11.2</ele>
        <time>2026-07-27T15:00:56Z</time>
      </trkpt>
      <trkpt lat="62.101600000000005" lon="7.204330555555556">
        <ele>1.0</ele>
        <time>2026-07-27T15:04:34Z</time>
      </trkpt>
      <trkpt lat="62.11213055555556" lon="7.107222222222222">
        <ele>7.7</ele>
        <time>2026-07-27T15:19:07Z</time>
      </trkpt>
      <trkpt lat="62.102402777777776" lon="7.105341666666666">
        <ele>9.4</ele>
        <time>2026-07-27T15:40:13Z</time>
      </trkpt>
      <trkpt lat="62.10287777777778" lon="7.106825">
        <ele>5.1</ele>
        <time>2026-07-27T15:40:42Z</time>
      </trkpt>
      <trkpt lat="62.10158888888889" lon="7.204488888888889">
        <ele>-3.0</ele>
        <time>2026-07-27T15:58:11Z</time>
      </trkpt>
      <trkpt lat="62.10161111111111" lon="7.204452777777778">
        <ele>3.1</ele>
        <time>2026-07-27T15:58:15Z</time>
      </trkpt>
      <trkpt lat="62.0946" lon="7.2232972222222225">
        <ele>205.5</ele>
        <time>2026-07-27T21:02:28Z</time>
      </trkpt>
      <trkpt lat="62.09462222222223" lon="7.223161111111112">
        <ele>203.1</ele>
        <time>2026-07-28T01:56:40Z</time>
      </trkpt>
      <trkpt lat="62.094591666666666" lon="7.223169444444444">
        <ele>201.7</ele>
        <time>2026-07-28T09:47:45Z</time>
      </trkpt>
      <trkpt lat="62.09460555555556" lon="7.223136111111112">
        <ele>197.6</ele>
        <time>2026-07-28T09:56:09Z</time>
      </trkpt>
      <trkpt lat="62.117019444444445" lon="7.183266666666667">
        <ele>43.9</ele>
        <time>2026-07-28T10:09:11Z</time>
      </trkpt>
      <trkpt lat="62.26348055555555" lon="7.170791666666667">
        <ele>-6.6</ele>
        <time>2026-07-28T10:41:23Z</time>
      </trkpt>
      <trkpt lat="62.26349722222222" lon="7.170616666666667">
        <ele>-12.4</ele>
        <time>2026-07-28T10:41:36Z</time>
      </trkpt>
      <trkpt lat="62.33074166666667" lon="7.470152777777778">
        <ele>232.0</ele>
        <time>2026-07-28T11:22:24Z</time>
      </trkpt>
      <trkpt lat="62.33074166666667" lon="7.470188888888889">
        <ele>233.0</ele>
        <time>2026-07-28T11:22:31Z</time>
      </trkpt>
      <trkpt lat="62.330355555555556" lon="7.470186111111111">
        <ele>229.6</ele>
        <time>2026-07-28T11:24:18Z</time>
      </trkpt>
      <trkpt lat="62.33045833333334" lon="7.469813888888889">
        <ele>231.6</ele>
        <time>2026-07-28T11:26:16Z</time>
      </trkpt>
      <trkpt lat="62.33034444444445" lon="7.469363888888889">
        <ele>229.3</ele>
        <time>2026-07-28T11:27:44Z</time>
      </trkpt>
      <trkpt lat="62.330313888888895" lon="7.469569444444445">
        <ele>231.1</ele>
        <time>2026-07-28T11:35:09Z</time>
      </trkpt>
      <trkpt lat="62.33188611111112" lon="7.471236111111112">
        <ele>240.6</ele>
        <time>2026-07-28T11:35:35Z</time>
      </trkpt>
      <trkpt lat="62.330325" lon="7.469563888888889">
        <ele>231.0</ele>
        <time>2026-07-28T11:36:30Z</time>
      </trkpt>
      <trkpt lat="62.330325" lon="7.469586111111111">
        <ele>231.1</ele>
        <time>2026-07-28T11:36:39Z</time>
      </trkpt>
      <trkpt lat="62.33032222222223" lon="7.469575">
        <ele>228.4</ele>
        <time>2026-07-28T11:36:43Z</time>
      </trkpt>
      <trkpt lat="62.33032222222223" lon="7.469572222222222">
        <ele>231.4</ele>
        <time>2026-07-28T11:36:52Z</time>
      </trkpt>
      <trkpt lat="62.33032222222223" lon="7.469572222222222">
        <ele>231.4</ele>
        <time>2026-07-28T11:36:54Z</time>
      </trkpt>
      <trkpt lat="62.33032222222223" lon="7.469572222222222">
        <ele>231.4</ele>
        <time>2026-07-28T11:36:59Z</time>
      </trkpt>
      <trkpt lat="62.33034444444445" lon="7.469352777777778">
        <ele>231.9</ele>
        <time>2026-07-28T11:43:59Z</time>
      </trkpt>
      <trkpt lat="62.330422222222225" lon="7.469327777777778">
        <ele>230.8</ele>
        <time>2026-07-28T11:44:11Z</time>
      </trkpt>
      <trkpt lat="62.33045555555556" lon="7.469672222222222">
        <ele>231.6</ele>
        <time>2026-07-28T11:44:35Z</time>
      </trkpt>
      <trkpt lat="62.33047777777778" lon="7.470077777777778">
        <ele>229.7</ele>
        <time>2026-07-28T11:45:00Z</time>
      </trkpt>
      <trkpt lat="62.33075277777778" lon="7.471033333333334">
        <ele>241.5</ele>
        <time>2026-07-28T11:46:59Z</time>
      </trkpt>
      <trkpt lat="62.330738888888895" lon="7.471038888888889">
        <ele>239.9</ele>
        <time>2026-07-28T11:47:02Z</time>
      </trkpt>
      <trkpt lat="62.44334166666666" lon="7.660627777777778">
        <ele>769.6</ele>
        <time>2026-07-28T12:13:24Z</time>
      </trkpt>
      <trkpt lat="62.45238055555556" lon="7.663116666666667">
        <ele>699.6</ele>
        <time>2026-07-28T12:17:46Z</time>
      </trkpt>
      <trkpt lat="62.45290277777778" lon="7.663747222222223">
        <ele>702.6</ele>
        <time>2026-07-28T12:18:59Z</time>
      </trkpt>
      <trkpt lat="62.45386944444445" lon="7.665119444444445">
        <ele>699.2</ele>
        <time>2026-07-28T12:26:11Z</time>
      </trkpt>
      <trkpt lat="62.45401666666667" lon="7.665233333333334">
        <ele>701.1</ele>
        <time>2026-07-28T12:26:25Z</time>
      </trkpt>
      <trkpt lat="62.454708333333336" lon="7.666422222222223">
        <ele>703.3</ele>
        <time>2026-07-28T12:28:20Z</time>
      </trkpt>
      <trkpt lat="62.45425277777778" lon="7.665533333333333">
        <ele>699.2</ele>
        <time>2026-07-28T12:28:57Z</time>
      </trkpt>
      <trkpt lat="62.45507777777778" lon="7.667202777777778">
        <ele>702.8</ele>
        <time>2026-07-28T12:29:39Z</time>
      </trkpt>
      <trkpt lat="62.455086111111115" lon="7.6672">
        <ele>702.1</ele>
        <time>2026-07-28T12:29:52Z</time>
      </trkpt>
      <trkpt lat="62.45451111111112" lon="7.666941666666667">
        <ele>696.0</ele>
        <time>2026-07-28T12:32:04Z</time>
      </trkpt>
      <trkpt lat="62.454375000000006" lon="7.668077777777778">
        <ele>714.5</ele>
        <time>2026-07-28T12:32:46Z</time>
      </trkpt>
      <trkpt lat="62.454391666666666" lon="7.668077777777778">
        <ele>714.5</ele>
        <time>2026-07-28T12:32:50Z</time>
      </trkpt>
      <trkpt lat="62.45472222222222" lon="7.6717611111111115">
        <ele>705.8</ele>
        <time>2026-07-28T12:35:51Z</time>
      </trkpt>
      <trkpt lat="62.45475833333334" lon="7.671797222222223">
        <ele>703.2</ele>
        <time>2026-07-28T12:35:58Z</time>
      </trkpt>
      <trkpt lat="62.455063888888894" lon="7.672258333333334">
        <ele>691.8</ele>
        <time>2026-07-28T12:37:42Z</time>
      </trkpt>
      <trkpt lat="62.45505277777778" lon="7.6722527777777785">
        <ele>688.7</ele>
        <time>2026-07-28T12:38:04Z</time>
      </trkpt>
      <trkpt lat="62.45505277777778" lon="7.672261111111111">
        <ele>689.5</ele>
        <time>2026-07-28T12:38:19Z</time>
      </trkpt>
      <trkpt lat="62.455022222222226" lon="7.672319444444445">
        <ele>690.3</ele>
        <time>2026-07-28T12:39:09Z</time>
      </trkpt>
      <trkpt lat="62.455025000000006" lon="7.672297222222222">
        <ele>690.8</ele>
        <time>2026-07-28T12:39:46Z</time>
      </trkpt>
      <trkpt lat="62.455022222222226" lon="7.6723">
        <ele>691.9</ele>
        <time>2026-07-28T12:40:11Z</time>
      </trkpt>
      <trkpt lat="62.45466666666667" lon="7.671797222222223">
        <ele>704.9</ele>
        <time>2026-07-28T12:46:26Z</time>
      </trkpt>
      <trkpt lat="62.45468888888889" lon="7.671769444444445">
        <ele>706.6</ele>
        <time>2026-07-28T12:46:53Z</time>
      </trkpt>
      <trkpt lat="62.45466666666667" lon="7.671758333333334">
        <ele>704.7</ele>
        <time>2026-07-28T12:51:11Z</time>
      </trkpt>
      <trkpt lat="62.454675" lon="7.671786111111111">
        <ele>704.7</ele>
        <time>2026-07-28T12:52:23Z</time>
      </trkpt>
      <trkpt lat="62.454675" lon="7.671758333333334">
        <ele>705.2</ele>
        <time>2026-07-28T12:54:29Z</time>
      </trkpt>
      <trkpt lat="62.45466666666667" lon="7.671677777777778">
        <ele>707.4</ele>
        <time>2026-07-28T12:56:59Z</time>
      </trkpt>
      <trkpt lat="62.454661111111115" lon="7.671683333333333">
        <ele>702.0</ele>
        <time>2026-07-28T12:57:04Z</time>
      </trkpt>
      <trkpt lat="62.454661111111115" lon="7.671755555555555">
        <ele>704.1</ele>
        <time>2026-07-28T12:58:01Z</time>
      </trkpt>
      <trkpt lat="62.45465555555556" lon="7.671722222222223">
        <ele>701.5</ele>
        <time>2026-07-28T13:02:58Z</time>
      </trkpt>
      <trkpt lat="62.45464722222223" lon="7.67175">
        <ele>704.3</ele>
        <time>2026-07-28T13:06:51Z</time>
      </trkpt>
      <trkpt lat="62.45474166666667" lon="7.671366666666667">
        <ele>709.0</ele>
        <time>2026-07-28T13:07:34Z</time>
      </trkpt>
      <trkpt lat="62.45455555555556" lon="7.670825000000001">
        <ele>709.5</ele>
        <time>2026-07-28T13:08:12Z</time>
      </trkpt>
      <trkpt lat="62.454433333333334" lon="7.667316666666667">
        <ele>701.8</ele>
        <time>2026-07-28T13:11:05Z</time>
      </trkpt>
      <trkpt lat="62.45429722222222" lon="7.6657777777777785">
        <ele>704.3</ele>
        <time>2026-07-28T13:12:53Z</time>
      </trkpt>
      <trkpt lat="62.45431111111112" lon="7.665805555555556">
        <time>2026-07-28T13:13:42Z</time>
      </trkpt>
      <trkpt lat="62.45391111111111" lon="7.664616666666667">
        <ele>704.7</ele>
        <time>2026-07-28T13:14:55Z</time>
      </trkpt>
      <trkpt lat="62.453586111111115" lon="7.664208333333334">
        <ele>688.6</ele>
        <time>2026-07-28T13:17:30Z</time>
      </trkpt>
      <trkpt lat="62.452447222222226" lon="7.663075">
        <ele>697.8</ele>
        <time>2026-07-28T13:23:57Z</time>
      </trkpt>
      <trkpt lat="62.27001944444444" lon="8.163247222222223">
        <ele>549.4</ele>
        <time>2026-07-28T14:51:18Z</time>
      </trkpt>
      <trkpt lat="62.27001666666666" lon="8.162925">
        <ele>554.9</ele>
        <time>2026-07-28T14:53:37Z</time>
      </trkpt>
      <trkpt lat="62.27025555555556" lon="8.163183333333334">
        <ele>565.0</ele>
        <time>2026-07-28T14:59:20Z</time>
      </trkpt>
      <trkpt lat="62.27038888888889" lon="8.163419444444445">
        <ele>557.4</ele>
        <time>2026-07-28T15:07:35Z</time>
      </trkpt>
      <trkpt lat="62.00075277777778" lon="8.966436111111111">
        <ele>1073.2</ele>
        <time>2026-07-28T16:19:02Z</time>
      </trkpt>
      <trkpt lat="62.00075277777778" lon="8.966436111111111">
        <ele>1073.2</ele>
        <time>2026-07-28T16:19:06Z</time>
      </trkpt>
      <trkpt lat="61.994975000000004" lon="8.9735">
        <ele>1061.9</ele>
        <time>2026-07-28T16:20:19Z</time>
      </trkpt>
      <trkpt lat="61.83898611111111" lon="8.56948888888889">
        <ele>373.1</ele>
        <time>2026-07-28T17:35:46Z</time>
      </trkpt>
      <trkpt lat="61.838925" lon="8.56953611111111">
        <ele>361.3</ele>
        <time>2026-07-28T18:19:49Z</time>
      </trkpt>
      <trkpt lat="61.83846666666667" lon="8.569266666666666">
        <ele>379.3</ele>
        <time>2026-07-28T18:21:26Z</time>
      </trkpt>
      <trkpt lat="61.83770277777778" lon="8.568497222222222">
        <ele>382.4</ele>
        <time>2026-07-28T19:12:37Z</time>
      </trkpt>
      <trkpt lat="61.83845" lon="8.569336111111111">
        <ele>379.7</ele>
        <time>2026-07-28T19:38:21Z</time>
      </trkpt>
      <trkpt lat="61.83844444444445" lon="8.569272222222223">
        <ele>377.9</ele>
        <time>2026-07-28T19:38:33Z</time>
      </trkpt>
      <trkpt lat="61.83884166666667" lon="8.569475">
        <ele>378.5</ele>
        <time>2026-07-28T19:40:12Z</time>
      </trkpt>
      <trkpt lat="61.83861666666667" lon="8.56873888888889">
        <ele>374.1</ele>
        <time>2026-07-28T19:40:38Z</time>
      </trkpt>
      <trkpt lat="61.83876388888889" lon="8.568022222222222">
        <ele>358.6</ele>
        <time>2026-07-28T19:42:20Z</time>
      </trkpt>
      <trkpt lat="61.83891388888889" lon="8.569369444444444">
        <ele>366.2</ele>
        <time>2026-07-28T19:44:08Z</time>
      </trkpt>
      <trkpt lat="61.83886388888889" lon="8.568958333333333">
        <ele>369.9</ele>
        <time>2026-07-28T19:45:04Z</time>
      </trkpt>
      <trkpt lat="61.83960833333334" lon="8.566158333333334">
        <ele>382.1</ele>
        <time>2026-07-28T19:53:05Z</time>
      </trkpt>
      <trkpt lat="61.83988888888889" lon="8.565980555555557">
        <ele>379.0</ele>
        <time>2026-07-28T19:54:28Z</time>
      </trkpt>
      <trkpt lat="61.838572222222226" lon="8.566958333333334">
        <ele>362.0</ele>
        <time>2026-07-28T19:58:26Z</time>
      </trkpt>
      <trkpt lat="61.83818333333333" lon="8.567327777777777">
        <ele>382.0</ele>
        <time>2026-07-28T19:59:49Z</time>
      </trkpt>
      <trkpt lat="61.838188888888894" lon="8.567330555555555">
        <ele>382.1</ele>
        <time>2026-07-28T19:59:53Z</time>
      </trkpt>
      <trkpt lat="61.83781944444445" lon="8.566880555555555">
        <ele>383.1</ele>
        <time>2026-07-28T20:05:18Z</time>
      </trkpt>
      <trkpt lat="61.83934444444445" lon="8.572272222222223">
        <ele>379.0</ele>
        <time>2026-07-28T20:23:15Z</time>
      </trkpt>
      <trkpt lat="61.83940833333334" lon="8.571941666666666">
        <ele>372.7</ele>
        <time>2026-07-28T20:33:34Z</time>
      </trkpt>
      <trkpt lat="61.83893611111111" lon="8.568955555555556">
        <ele>372.4</ele>
        <time>2026-07-28T22:16:37Z</time>
      </trkpt>
      <trkpt lat="61.83876388888889" lon="8.569947222222222">
        <ele>378.5</ele>
        <time>2026-07-28T22:17:54Z</time>
      </trkpt>
      <trkpt lat="61.83878333333334" lon="8.570027777777778">
        <ele>378.5</ele>
        <time>2026-07-28T22:18:03Z</time>
      </trkpt>
      <trkpt lat="61.839447222222226" lon="8.568991666666667">
        <ele>372.8</ele>
        <time>2026-07-28T22:26:13Z</time>
      </trkpt>
      <trkpt lat="61.83898055555556" lon="8.569475">
        <ele>370.5</ele>
        <time>2026-07-28T22:31:36Z</time>
      </trkpt>
      <trkpt lat="61.83898611111111" lon="8.56946111111111">
        <ele>378.2</ele>
        <time>2026-07-28T22:32:50Z</time>
      </trkpt>
      <trkpt lat="61.83893333333334" lon="8.569419444444444">
        <ele>369.3</ele>
        <time>2026-07-28T22:33:27Z</time>
      </trkpt>
      <trkpt lat="61.83790555555556" lon="8.567538888888889">
        <ele>382.5</ele>
        <time>2026-07-29T09:16:10Z</time>
      </trkpt>
      <trkpt lat="61.83810555555556" lon="8.567402777777778">
        <ele>382.7</ele>
        <time>2026-07-29T09:33:33Z</time>
      </trkpt>
      <trkpt lat="61.83893611111111" lon="8.569433333333333">
        <ele>369.1</ele>
        <time>2026-07-29T09:42:09Z</time>
      </trkpt>
      <trkpt lat="61.53039166666667" lon="8.879147222222223">
        <time>2026-07-29T12:05:18Z</time>
      </trkpt>
      <trkpt lat="61.46890555555556" lon="8.814847222222223">
        <ele>1059.7</ele>
        <time>2026-07-29T12:12:15Z</time>
      </trkpt>
      <trkpt lat="61.46613055555556" lon="8.811133333333334">
        <ele>1093.0</ele>
        <time>2026-07-29T12:12:34Z</time>
      </trkpt>
      <trkpt lat="61.427363888888884" lon="8.802733333333334">
        <ele>1183.1</ele>
        <time>2026-07-29T12:16:16Z</time>
      </trkpt>
      <trkpt lat="60.45562777777778" lon="8.797369444444444">
        <ele>775.5</ele>
        <time>2026-07-29T15:37:17Z</time>
      </trkpt>
      <trkpt lat="60.26490833333333" lon="8.78823888888889">
        <ele>472.7</ele>
        <time>2026-07-29T16:44:48Z</time>
      </trkpt>
      <trkpt lat="60.26467777777778" lon="8.788555555555556">
        <ele>468.4</ele>
        <time>2026-07-29T16:45:02Z</time>
      </trkpt>
      <trkpt lat="60.264697222222225" lon="8.787461111111112">
        <ele>473.6</ele>
        <time>2026-07-29T19:19:45Z</time>
      </trkpt>
      <trkpt lat="60.26403888888889" lon="8.78903888888889">
        <ele>472.4</ele>
        <time>2026-07-29T19:24:51Z</time>
      </trkpt>
      <trkpt lat="60.264633333333336" lon="8.788502777777778">
        <ele>472.7</ele>
        <time>2026-07-29T19:26:20Z</time>
      </trkpt>
      <trkpt lat="60.26457222222222" lon="8.78855">
        <ele>472.9</ele>
        <time>2026-07-29T19:27:07Z</time>
      </trkpt>
      <trkpt lat="60.26403888888889" lon="8.788886111111111">
        <ele>469.5</ele>
        <time>2026-07-29T19:27:16Z</time>
      </trkpt>
      <trkpt lat="60.26442222222222" lon="8.787216666666666">
        <ele>473.3</ele>
        <time>2026-07-29T19:38:44Z</time>
      </trkpt>
      <trkpt lat="60.26486666666667" lon="8.787897222222222">
        <ele>441.0</ele>
        <time>2026-07-29T19:39:29Z</time>
      </trkpt>
      <trkpt lat="60.26475555555555" lon="8.787494444444444">
        <ele>472.4</ele>
        <time>2026-07-29T19:39:38Z</time>
      </trkpt>
      <trkpt lat="60.26462222222222" lon="8.788483333333334">
        <ele>475.8</ele>
        <time>2026-07-29T19:42:51Z</time>
      </trkpt>
      <trkpt lat="60.26478888888889" lon="8.788419444444445">
        <ele>471.5</ele>
        <time>2026-07-29T20:39:45Z</time>
      </trkpt>
      <trkpt lat="60.264633333333336" lon="8.7886">
        <ele>472.6</ele>
        <time>2026-07-29T20:39:56Z</time>
      </trkpt>
      <trkpt lat="60.264633333333336" lon="8.788561111111111">
        <ele>477.5</ele>
        <time>2026-07-30T00:17:44Z</time>
      </trkpt>
      <trkpt lat="60.264697222222225" lon="8.788766666666666">
        <ele>472.6</ele>
        <time>2026-07-30T00:22:30Z</time>
      </trkpt>
      <trkpt lat="60.26466388888889" lon="8.788625">
        <ele>474.2</ele>
        <time>2026-07-30T09:57:38Z</time>
      </trkpt>
      <trkpt lat="60.264858333333336" lon="8.787419444444444">
        <ele>470.8</ele>
        <time>2026-07-30T11:24:42Z</time>
      </trkpt>
      <trkpt lat="60.26493055555556" lon="8.787583333333334">
        <ele>473.6</ele>
        <time>2026-07-30T11:59:44Z</time>
      </trkpt>
      <trkpt lat="60.26497222222222" lon="8.787688888888889">
        <ele>472.6</ele>
        <time>2026-07-30T12:18:27Z</time>
      </trkpt>
      <trkpt lat="60.26495277777778" lon="8.78763611111111">
        <ele>458.8</ele>
        <time>2026-07-30T12:20:39Z</time>
      </trkpt>
      <trkpt lat="60.264858333333336" lon="8.7874">
        <ele>471.0</ele>
        <time>2026-07-30T12:20:48Z</time>
      </trkpt>
      <trkpt lat="60.26486111111111" lon="8.787288888888888">
        <ele>470.7</ele>
        <time>2026-07-30T12:42:29Z</time>
      </trkpt>
      <trkpt lat="60.264855555555556" lon="8.787366666666667">
        <ele>471.6</ele>
        <time>2026-07-30T12:53:19Z</time>
      </trkpt>
      <trkpt lat="60.26495833333333" lon="8.787102777777777">
        <ele>474.8</ele>
        <time>2026-07-30T12:53:44Z</time>
      </trkpt>
      <trkpt lat="60.26443888888889" lon="8.786708333333333">
        <ele>460.0</ele>
        <time>2026-07-30T13:54:43Z</time>
      </trkpt>
      <trkpt lat="60.26381388888889" lon="8.786594444444445">
        <ele>442.9</ele>
        <time>2026-07-30T14:07:30Z</time>
      </trkpt>
      <trkpt lat="60.263958333333335" lon="8.7866">
        <ele>467.7</ele>
        <time>2026-07-30T14:07:55Z</time>
      </trkpt>
      <trkpt lat="60.26382777777778" lon="8.7882">
        <ele>471.0</ele>
        <time>2026-07-30T14:33:44Z</time>
      </trkpt>
      <trkpt lat="60.264827777777775" lon="8.788155555555555">
        <ele>472.6</ele>
        <time>2026-07-30T14:54:06Z</time>
      </trkpt>
      <trkpt lat="60.26486666666667" lon="8.788141666666666">
        <ele>472.5</ele>
        <time>2026-07-30T14:58:14Z</time>
      </trkpt>
      <trkpt lat="60.26486666666667" lon="8.788097222222222">
        <ele>472.5</ele>
        <time>2026-07-30T15:05:31Z</time>
      </trkpt>
      <trkpt lat="60.26453055555555" lon="8.787902777777777">
        <ele>472.3</ele>
        <time>2026-07-30T15:18:18Z</time>
      </trkpt>
      <trkpt lat="60.264605555555555" lon="8.788591666666667">
        <ele>473.4</ele>
        <time>2026-07-30T15:27:44Z</time>
      </trkpt>
      <trkpt lat="60.26463611111111" lon="8.788575">
        <ele>473.1</ele>
        <time>2026-07-30T17:11:42Z</time>
      </trkpt>
      <trkpt lat="60.26462222222222" lon="8.78851388888889">
        <ele>471.3</ele>
        <time>2026-07-30T17:42:21Z</time>
      </trkpt>
      <trkpt lat="60.26472777777778" lon="8.788519444444445">
        <ele>496.9</ele>
        <time>2026-07-30T17:46:10Z</time>
      </trkpt>
      <trkpt lat="60.264922222222225" lon="8.788677777777778">
        <ele>472.6</ele>
        <time>2026-07-30T18:47:25Z</time>
      </trkpt>
      <trkpt lat="60.26484722222222" lon="8.787286111111111">
        <ele>483.5</ele>
        <time>2026-07-30T18:47:28Z</time>
      </trkpt>
      <trkpt lat="60.264763888888886" lon="8.788522222222221">
        <ele>471.4</ele>
        <time>2026-07-30T20:09:14Z</time>
      </trkpt>
      <trkpt lat="60.264605555555555" lon="8.788636111111112">
        <ele>473.3</ele>
        <time>2026-07-30T21:51:43Z</time>
      </trkpt>
      <trkpt lat="60.26461111111111" lon="8.788622222222221">
        <ele>473.3</ele>
        <time>2026-07-30T21:52:31Z</time>
      </trkpt>
      <trkpt lat="60.26204722222222" lon="8.786577777777778">
        <ele>469.1</ele>
        <time>2026-07-31T12:14:12Z</time>
      </trkpt>
      <trkpt lat="60.26445277777778" lon="8.78866388888889">
        <ele>474.5</ele>
        <time>2026-07-31T13:40:25Z</time>
      </trkpt>
      <trkpt lat="60.26456944444445" lon="8.787533333333334">
        <ele>476.0</ele>
        <time>2026-07-31T13:54:35Z</time>
      </trkpt>
      <trkpt lat="60.264602777777775" lon="8.788652777777777">
        <ele>473.9</ele>
        <time>2026-07-31T14:14:56Z</time>
      </trkpt>
      <trkpt lat="60.263844444444445" lon="8.788208333333333">
        <ele>466.4</ele>
        <time>2026-07-31T17:30:32Z</time>
      </trkpt>
      <trkpt lat="60.263844444444445" lon="8.788180555555556">
        <ele>470.6</ele>
        <time>2026-07-31T17:30:34Z</time>
      </trkpt>
      <trkpt lat="60.26476666666667" lon="8.787444444444445">
        <ele>472.4</ele>
        <time>2026-07-31T17:40:37Z</time>
      </trkpt>
      <trkpt lat="60.26483888888889" lon="8.787408333333333">
        <ele>471.9</ele>
        <time>2026-07-31T17:41:20Z</time>
      </trkpt>
      <trkpt lat="60.264763888888886" lon="8.787466666666667">
        <ele>472.0</ele>
        <time>2026-07-31T17:43:32Z</time>
      </trkpt>
      <trkpt lat="60.264763888888886" lon="8.787425">
        <ele>471.1</ele>
        <time>2026-07-31T17:43:39Z</time>
      </trkpt>
      <trkpt lat="60.06459722222222" lon="8.781119444444446">
        <ele>474.8</ele>
        <time>2026-08-01T12:13:35Z</time>
      </trkpt>
      <trkpt lat="59.98759166666667" lon="8.788408333333333">
        <ele>200.4</ele>
        <time>2026-08-01T12:28:16Z</time>
      </trkpt>
      <trkpt lat="59.98816388888889" lon="8.782652777777779">
        <ele>198.3</ele>
        <time>2026-08-01T12:28:37Z</time>
      </trkpt>
      <trkpt lat="59.4938" lon="9.329669444444445">
        <ele>107.9</ele>
        <time>2026-08-01T14:02:44Z</time>
      </trkpt>
      <trkpt lat="59.48484722222222" lon="9.329455555555555">
        <ele>119.6</ele>
        <time>2026-08-01T14:03:39Z</time>
      </trkpt>
      <trkpt lat="59.210322222222224" lon="9.564075">
        <ele>100.2</ele>
        <time>2026-08-01T20:12:25Z</time>
      </trkpt>
      <trkpt lat="59.210322222222224" lon="9.564075">
        <ele>100.2</ele>
        <time>2026-08-01T20:46:23Z</time>
      </trkpt>
      <trkpt lat="59.210322222222224" lon="9.564075">
        <ele>100.2</ele>
        <time>2026-08-01T20:46:32Z</time>
      </trkpt>
      <trkpt lat="59.21030555555556" lon="9.564061111111112">
        <ele>97.2</ele>
        <time>2026-08-02T10:51:47Z</time>
      </trkpt>
      <trkpt lat="59.21019722222223" lon="9.564041666666668">
        <ele>99.0</ele>
        <time>2026-08-02T11:51:15Z</time>
      </trkpt>
      <trkpt lat="59.38154166666667" lon="9.414372222222223">
        <ele>587.9</ele>
        <time>2026-08-02T14:54:07Z</time>
      </trkpt>
      <trkpt lat="59.38153333333334" lon="9.414427777777778">
        <ele>585.9</ele>
        <time>2026-08-02T15:55:55Z</time>
      </trkpt>
      <trkpt lat="59.38153333333334" lon="9.414425">
        <ele>585.9</ele>
        <time>2026-08-02T15:57:01Z</time>
      </trkpt>
      <trkpt lat="59.38154166666667" lon="9.414425">
        <ele>585.9</ele>
        <time>2026-08-02T15:58:23Z</time>
      </trkpt>
      <trkpt lat="59.38154166666667" lon="9.414419444444444">
        <ele>585.9</ele>
        <time>2026-08-02T15:59:50Z</time>
      </trkpt>
      <trkpt lat="59.38154166666667" lon="9.414416666666668">
        <ele>585.9</ele>
        <time>2026-08-02T16:04:21Z</time>
      </trkpt>
      <trkpt lat="59.38155" lon="9.414416666666668">
        <ele>586.4</ele>
        <time>2026-08-02T16:07:42Z</time>
      </trkpt>
      <trkpt lat="59.38153888888889" lon="9.414405555555556">
        <ele>586.2</ele>
        <time>2026-08-02T17:01:35Z</time>
      </trkpt>
      <trkpt lat="59.382397222222224" lon="9.41403611111111">
        <ele>580.5</ele>
        <time>2026-08-02T18:31:43Z</time>
      </trkpt>
      <trkpt lat="59.38240555555556" lon="9.413961111111112">
        <ele>579.8</ele>
        <time>2026-08-02T18:31:50Z</time>
      </trkpt>
      <trkpt lat="59.382377777777776" lon="9.413944444444445">
        <ele>577.8</ele>
        <time>2026-08-02T18:31:56Z</time>
      </trkpt>
      <trkpt lat="59.21032777777778" lon="9.564080555555556">
        <ele>102.7</ele>
        <time>2026-08-02T21:05:14Z</time>
      </trkpt>
      <trkpt lat="59.21032777777778" lon="9.564080555555556">
        <ele>100.3</ele>
        <time>2026-08-03T09:56:36Z</time>
      </trkpt>
      <trkpt lat="59.21031111111111" lon="9.564097222222223">
        <ele>93.4</ele>
        <time>2026-08-03T11:28:09Z</time>
      </trkpt>
      <trkpt lat="59.21028611111112" lon="9.564019444444446">
        <ele>100.3</ele>
        <time>2026-08-03T12:09:52Z</time>
      </trkpt>
      <trkpt lat="59.174683333333334" lon="9.628130555555556">
        <ele>22.6</ele>
        <time>2026-08-03T12:42:33Z</time>
      </trkpt>
      <trkpt lat="59.17471666666666" lon="9.628119444444446">
        <ele>22.6</ele>
        <time>2026-08-03T13:06:24Z</time>
      </trkpt>
      <trkpt lat="58.97405555555556" lon="9.669858333333332">
        <ele>30.5</ele>
        <time>2026-08-03T14:35:58Z</time>
      </trkpt>
      <trkpt lat="58.97404166666667" lon="9.669866666666666">
        <ele>29.4</ele>
        <time>2026-08-03T14:36:00Z</time>
      </trkpt>
      <trkpt lat="58.974780555555554" lon="9.671516666666665">
        <ele>27.2</ele>
        <time>2026-08-03T14:38:58Z</time>
      </trkpt>
      <trkpt lat="58.9747" lon="9.670527777777778">
        <time>2026-08-03T14:39:19Z</time>
      </trkpt>
      <trkpt lat="58.97463333333334" lon="9.672088888888888">
        <ele>17.3</ele>
        <time>2026-08-03T14:39:33Z</time>
      </trkpt>
      <trkpt lat="58.97311388888889" lon="9.674486111111111">
        <ele>-2.7</ele>
        <time>2026-08-03T14:42:41Z</time>
      </trkpt>
      <trkpt lat="58.972744444444444" lon="9.67498611111111">
        <ele>2.1</ele>
        <time>2026-08-03T14:46:34Z</time>
      </trkpt>
      <trkpt lat="58.972636111111115" lon="9.675197222222222">
        <ele>0.7</ele>
        <time>2026-08-03T14:47:13Z</time>
      </trkpt>
      <trkpt lat="58.97185555555556" lon="9.674925">
        <ele>4.9</ele>
        <time>2026-08-03T14:51:00Z</time>
      </trkpt>
      <trkpt lat="58.97184444444444" lon="9.675075">
        <ele>2.7</ele>
        <time>2026-08-03T14:51:18Z</time>
      </trkpt>
      <trkpt lat="58.971244444444444" lon="9.67558611111111">
        <ele>2.2</ele>
        <time>2026-08-03T14:53:43Z</time>
      </trkpt>
      <trkpt lat="58.971244444444444" lon="9.675469444444444">
        <ele>2.4</ele>
        <time>2026-08-03T14:55:13Z</time>
      </trkpt>
      <trkpt lat="58.97159444444445" lon="9.682805555555555">
        <time>2026-08-03T14:57:37Z</time>
      </trkpt>
      <trkpt lat="58.971175" lon="9.675563888888888">
        <ele>0.7</ele>
        <time>2026-08-03T15:00:56Z</time>
      </trkpt>
      <trkpt lat="58.971175" lon="9.675563888888888">
        <ele>1.1</ele>
        <time>2026-08-03T15:01:01Z</time>
      </trkpt>
      <trkpt lat="58.97166388888889" lon="9.685869444444444">
        <time>2026-08-03T15:02:38Z</time>
      </trkpt>
      <trkpt lat="58.97117222222222" lon="9.675577777777777">
        <ele>0.3</ele>
        <time>2026-08-03T15:03:18Z</time>
      </trkpt>
      <trkpt lat="58.97115" lon="9.675455555555555">
        <ele>7.7</ele>
        <time>2026-08-03T15:06:44Z</time>
      </trkpt>
      <trkpt lat="58.971161111111115" lon="9.675497222222221">
        <ele>1.0</ele>
        <time>2026-08-03T15:10:07Z</time>
      </trkpt>
      <trkpt lat="58.97125277777778" lon="9.676080555555554">
        <ele>-1.1</ele>
        <time>2026-08-03T15:13:40Z</time>
      </trkpt>
      <trkpt lat="58.97123611111111" lon="9.675958333333332">
        <ele>2.0</ele>
        <time>2026-08-03T15:16:39Z</time>
      </trkpt>
      <trkpt lat="58.97150555555556" lon="9.675775">
        <ele>0.8</ele>
        <time>2026-08-03T15:26:16Z</time>
      </trkpt>
      <trkpt lat="58.97150833333333" lon="9.675783333333333">
        <ele>2.0</ele>
        <time>2026-08-03T15:26:23Z</time>
      </trkpt>
      <trkpt lat="58.971608333333336" lon="9.675719444444443">
        <ele>-3.0</ele>
        <time>2026-08-03T15:34:09Z</time>
      </trkpt>
      <trkpt lat="58.97174444444445" lon="9.675641666666666">
        <ele>2.1</ele>
        <time>2026-08-03T15:34:36Z</time>
      </trkpt>
      <trkpt lat="58.97171111111111" lon="9.67558611111111">
        <ele>3.1</ele>
        <time>2026-08-03T15:34:52Z</time>
      </trkpt>
      <trkpt lat="58.971805555555555" lon="9.67516111111111">
        <ele>5.1</ele>
        <time>2026-08-03T16:41:38Z</time>
      </trkpt>
      <trkpt lat="59.19519444444444" lon="9.585991666666667">
        <ele>28.1</ele>
        <time>2026-08-04T06:17:02Z</time>
      </trkpt>
      <trkpt lat="59.040974999999996" lon="10.047480555555556">
        <ele>4.2</ele>
        <time>2026-08-04T07:01:24Z</time>
      </trkpt>
      <trkpt lat="59.03850277777778" lon="10.02508888888889">
        <time>2026-08-04T08:02:08Z</time>
      </trkpt>
      <trkpt lat="59.03809444444444" lon="10.023433333333335">
        <time>2026-08-04T08:02:35Z</time>
      </trkpt>
      <trkpt lat="59.03809444444444" lon="10.023433333333335">
        <time>2026-08-04T09:36:22Z</time>
      </trkpt>
      <trkpt lat="59.03809444444444" lon="10.023433333333335">
        <time>2026-08-04T09:45:52Z</time>
      </trkpt>
      <trkpt lat="59.03809444444444" lon="10.023433333333335">
        <time>2026-08-04T10:05:25Z</time>
      </trkpt>
      <trkpt lat="57.40768333333333" lon="10.176086111111111">
        <time>2026-08-04T10:15:59Z</time>
      </trkpt>
      <trkpt lat="58.53381666666667" lon="9.939805555555555">
        <time>2026-08-04T10:41:12Z</time>
      </trkpt>
      <trkpt lat="57.78753333333333" lon="9.853494444444443">
        <time>2026-08-04T11:02:36Z</time>
      </trkpt>
      <trkpt lat="57.698722222222216" lon="9.948097222222222">
        <time>2026-08-04T11:02:51Z</time>
      </trkpt>
      <trkpt lat="57.66264722222222" lon="10.027327777777778">
        <time>2026-08-04T11:02:59Z</time>
      </trkpt>
      <trkpt lat="57.67477777777778" lon="9.973005555555556">
        <time>2026-08-04T11:03:05Z</time>
      </trkpt>
      <trkpt lat="57.76126388888889" lon="9.9651">
        <ele>-1.0</ele>
        <time>2026-08-04T11:09:18Z</time>
      </trkpt>
      <trkpt lat="51.09515833333334" lon="6.5643111111111105">
        <ele>67.9</ele>
        <time>2026-08-04T22:15:13Z</time>
      </trkpt>
    </trkseg>
  </trk>
</gpx>